"id","name","streetAddress","city","state","country","postal"
"on-public:B66044:890073","A B Lucas Secondary School","656 Tennent Ave","London","Ontario","Canada","N5X 1L8"
"on-public:B66150:890200","A N Myer Secondary School","6338 Oneil St","Niagara Falls","Ontario","Canada","L2J 1M7"
"on-public:B66184:890243","A.Y. Jackson Secondary School","150 Abbeyhill Dr","Kanata","Ontario","Canada","K2L 1H7"
"on-public:B66052:890227","A Y Jackson Secondary School","50 Francine Dr","Toronto","Ontario","Canada","M2H 2G6"
"on-public:B66133:913715","Abbey Park High School","1455 Glen Abbey Gate","Oakville","Ontario","Canada","L6M 2G5"
"on-public:B66133:890332","Acton District School","21 Cedar Rd","Acton","Ontario","Canada","L7J 2V2"
"on-public:B66079:890464","Adam Scott Collegiate and Vocational Institute","175 Langton St","Peterborough","Ontario","Canada","K9H 6K3"
"on-public:B66052:890723","Agincourt Collegiate Institute","2621 Midland Ave","Agincourt","Ontario","Canada","M1S 1R6"
"on-public:B66060:890855","Ajax High School","105 Bayly St E","Ajax","Ontario","Canada","L1S 1P2"
"on-public:B66052:890880","Albert Campbell Collegiate Institute","1550 Sandhurst Circle","Toronto","Ontario","Canada","M1V 1S6"
"on-public:B66133:890987","Aldershot High School","50 Fairwood Pl W","Burlington","Ontario","Canada","L7T 1E5"
"on-public:B66095:904040","Alexander MacKenzie High School","300 Major MacKenzie Dr W","Richmond Hill","Ontario","Canada","L4C 3S3"
"on-public:B67180:724777","All Saints Catholic High School","5115 Kanata Ave","Kanata","Ontario","Canada","K2K 3K5"
"on-public:B67105:685984","All Saints Catholic Secondary School Secondary School","3001 Country Lane","Whitby","Ontario","Canada","L1P 1M1"
"on-public:B28037:943630","Almaguin Highlands Secondary School","PO Box Box 250, 21 Mountain View Road","South River","Ontario","Canada","P0A 1X0"
"on-public:B66192:891630","Almonte District High School","126 Martin Street North","Almonte","Ontario","Canada","K0A 1A0"
"on-public:B66052:901908","ALPHA II Alternative School","35 Calico Drive","North York","Ontario","Canada","M3L 1V5"
"on-public:B66052:892475","Alternative Scarborough Education 1","45 Windover Drive","Scarborough","Ontario","Canada","M1G 1P1"
"on-public:B66060:892025","Anderson Collegiate and Vocational Institute","400 Anderson St","Whitby","Ontario","Canada","L1N 3V6"
"on-public:B66125:892203","Applewood Heights Secondary School","945 Bloor St E","Mississauga","Ontario","Canada","L4Y 2M8"
"on-public:B67105:703923","Archbishop Denis O'Connor Catholic High School","80 Mandrake St","Ajax","Ontario","Canada","L1S 5H4"
"on-public:B66214:892416","Arnprior District High School","59 Ottawa St","Arnprior","Ontario","Canada","K7S 1X2"
"on-public:B66044:892670","Arthur Voaden Secondary School","41 Flora St","St Thomas","Ontario","Canada","N5P 2X5"
"on-public:B67083:687308","Ascension of Our Lord Secondary School","7640 Anaka Drive","Mississauga","Ontario","Canada","L4T 3H7"
"on-public:B67113:688231","Assumption Catholic Secondary School","3230 Woodward Ave","Burlington","Ontario","Canada","L7N 3P1"
"on-public:B67024:688363","Assumption College School","1100 Huron Church Rd","Windsor","Ontario","Canada","N9C 2K7"
"on-public:B67164:688088","Assumption College School High School","257 Shellard Lane","Brantford","Ontario","Canada","N3T 0M7"
"on-public:B66192:892807","Athens District High School","21 Church Street","Athens","Ontario","Canada","K0E 1B0"
"on-public:B66095:892998","Aurora High School","155 Wellington St W","Aurora","Ontario","Canada","L4G 2P4"
"on-public:B66052:890120","Avondale Secondary Alternative School","24 Silverview Dr Dr","North York","Ontario","Canada","M2N 2B3"
"on-public:B66109:893064","Banting Memorial High School","PO Box Box 3000, 203 Victoria St E","Alliston","Ontario","Canada","L9R 1G5"
"on-public:B66109:893323","Barrie North Collegiate Institute","110 Grove St E","Barrie","Ontario","Canada","L4M 2P3"
"on-public:B66206:893773","Bayridge Secondary School","1059 Taylor-Kidd Blvd","Kingston","Ontario","Canada","K7M 6J9"
"on-public:B66222:893803","Bayside Secondary School","1247 Old Hwy 2","Belleville","Ontario","Canada","K8N 4Z2"
"on-public:B66095:893978","Bayview Secondary School","10077 Bayview Ave","Richmond Hill","Ontario","Canada","L4C 2L4"
"on-public:B66109:894060","Bear Creek Secondary School","100 Red Oak Dr","Barrie","Ontario","Canada","L4N 9M5"
"on-public:B28045:894230","Beaver Brae Secondary School","1400 Ninth St N","Kenora","Ontario","Canada","P9N 2T7"
"on-public:B66184:894362","Bell High School","40 Cassidy Rd","Nepean","Ontario","Canada","K2H 6K1"
"on-public:B66028:929727","Belle River District High School","333 South St","Belle River","Ontario","Canada","N0R 1A0"
"on-public:B66141:898848","Bernie Custis Secondary School Secondary School","1055 King Street","Hamilton","Ontario","Canada","L8M 1E2"
"on-public:B66095:939585","Bill Crothers Secondary School","44 Main Street","Unionville","Ontario","Canada","L3R 2E4"
"on-public:B66095:890202","Bill Hogarth Secondary School","100 Donald Sim Ave","Markham","Ontario","Canada","L6B 0R4"
"on-public:B66052:895016","Birchmount Park Collegiate Institute","3663 Danforth Ave","Scarborough","Ontario","Canada","M1N 2G2"
"on-public:B29033:689351","Bishop Alexander Carter Catholic Secondary School","539 Francis Street","Hanmer","Ontario","Canada","P3P 1E6"
"on-public:B67059:689360","Bishop Allen Academy Catholic Secondary School","721 Royal York Rd","Toronto","Ontario","Canada","M8Y 2T3"
"on-public:B67130:689661","Bishop Macdonell Catholic Secondary School","200 Clair Rd W","Guelph","Ontario","Canada","N1L 1G1"
"on-public:B67059:691798","Bishop Marrocco/Thomas Merton Catholic Secondary School","1515 Bloor St W","Toronto","Ontario","Canada","M6P 1A3"
"on-public:B67113:689726","Bishop Paul Francis Reding Catholic Secondary School","PO Box Box 1015, 1120 Main St E","Milton","Ontario","Canada","L9T 6H7"
"on-public:B67121:689750","Bishop Ryan Catholic Secondary School","1824 Rymal Road East","Hannon","Ontario","Canada","L0R 1P0"
"on-public:B67199:689939","Bishop Smith Catholic High School","362 Carmody St","Pembroke","Ontario","Canada","K8A 4G2"
"on-public:B67121:689386","Bishop Tonnos Catholic Secondary School","100 Panabaker Dr","Ancaster","Ontario","Canada","L9G 5E3"
"on-public:B66036:895148","Blenheim District High School","163 Chatham St S","Blenheim","Ontario","Canada","N0P 1A0"
"on-public:B67156:690791","Blessed Trinity Catholic Secondary School","145 Livingston Ave","Grimsby","Ontario","Canada","L3M 5J6"
"on-public:B66052:895407","Bloor Collegiate Institute","725 Bathurst St","Toronto","Ontario","Canada","M5S 2R5"
"on-public:B66176:895458","Bluevale Collegiate Institute","80 Bluevale St N","Waterloo","Ontario","Canada","N2J 3R5"
"on-public:B66079:895539","Bowmanville High School","49 Liberty St N","Bowmanville","Ontario","Canada","L1C 2L8"
"on-public:B66087:895660","Bracebridge and Muskoka Lakes Secondary School","100 Clear Brook Trail","Bracebridge","Ontario","Canada","P1L 0A3"
"on-public:B66109:895792","Bradford District High School","70 Professor Day Dr","Bradford","Ontario","Canada","L3Z 3B9"
"on-public:B66125:895920","Bramalea Secondary School","510 Balmoral Dr","Brampton","Ontario","Canada","L6T 1W4"
"on-public:B66125:896055","Brampton Centennial Secondary School","251 McMurchy Ave S","Brampton","Ontario","Canada","L6Y 1Z4"
"on-public:B66168:896187","Brantford Collegiate Institute and Vocational School","120 Brant Ave","Brantford","Ontario","Canada","N3T 3H3"
"on-public:B67059:690961","Brebeuf College School","211 Steeles Ave E","Toronto","Ontario","Canada","M2M 3Y6"
"on-public:B66060:896446","Brock High School","C1590 CONCESSION 12 RR1","CANNINGTON","Ontario","Canada","L0E 1E0"
"on-public:B66192:896578","Brockville Collegiate Institute","90 Pearl Street East","Brockville","Ontario","Canada","K6V 1P8"
"on-public:B66184:896705","Brookfield High School","824 Brookfield Rd","Ottawa","Ontario","Canada","K1V 6J3"
"on-public:B66060:934991","Brooklin High School","20 Carnwith Drive","Whitby","Ontario","Canada","L1M 0K7"
"on-public:B66001:896969","Bruce Peninsula District School","5 Moore St","Lion s Head","Ontario","Canada","N0H 1W0"
"on-public:B66095:933346","Bur Oak Secondary School","933 Bur Oak Avenue","Markham","Ontario","Canada","L6E 1G4"
"on-public:B66133:897353","Burlington Central High School","1433 Baldwin St","Burlington","Ontario","Canada","L7S 1K4"
"on-public:B66052:897485","Burnhamthorpe Collegiate Institute","500 The East Mall","Etobicoke","Ontario","Canada","M9B 2C4"
"on-public:B66052:897744","C W Jefferys Collegiate Institute","340 Sentinel Rd","North York","Ontario","Canada","M3J 1T9"
"on-public:B66184:906514","Cairine Wilson Secondary School","975 Orleans Blvd","Orleans","Ontario","Canada","K1C 2Z5"
"on-public:B66052:890529","CALC Secondary School","1 Danforth Ave","Toronto","Ontario","Canada","M4K 1M8"
"on-public:B66176:898090","Cameron Heights Collegiate Institute","301 Charles St E","Kitchener","Ontario","Canada","N2G 2P8"
"on-public:B66079:898260","Campbellford District High School","119 Ranney St N","Campbellford","Ontario","Canada","K0L 1L0"
"on-public:B66184:898317","Canterbury High School","900 Canterbury Ave","Ottawa","Ontario","Canada","K1G 3A7"
"on-public:B67083:749813","Cardinal Ambrozic Catholic Secondary School","10 Castle Oaks Crossing","Brampton","Ontario","Canada","L6P 3A2"
"on-public:B67059:694550","Cardinal Carter Academy for the Arts","36 Greenfield Ave","Toronto","Ontario","Canada","M2N 3C8"
"on-public:B67075:728632","Cardinal Carter Catholic Secondary School","210 Bloomington Rd W","Aurora","Ontario","Canada","L4G 3G9"
"on-public:B67024:694452","Cardinal Carter Catholic Secondary School","120 Ellison Ave","Leamington","Ontario","Canada","N8H 5C7"
"on-public:B67083:850888","Cardinal Leger Secondary School","75 Mary St","Brampton","Ontario","Canada","L6W 3K5"
"on-public:B66052:912651","Caring and Safe School 1","30 Barrhead Cres","Etobicoke","Ontario","Canada","M9W 3Z7"
"on-public:B66052:909300","Caring and Safe School 2","1641 Pharmacy Avenue","Scarborough","Ontario","Canada","M1R 2L2"
"on-public:B66052:899704","Caring and Safe School 3","720 Midland Avenue","Scarborough","Ontario","Canada","M1K 4C9"
"on-public:B66052:952524","Caring and Safe School 4","Suite Suite 100, 540 Jones Ave","Toronto","Ontario","Canada","M6P 4G4"
"on-public:B66192:898520","Carleton Place High School","215 Lake Ave W","Carleton Place","Ontario","Canada","K7C 1M3"
"on-public:B29122:695483","Carrefour Options +","504 St-Raphael rue","Sudbury","Ontario","Canada","P3B 1M4"
"on-public:B66125:918407","Castlebrooke Secondary School","10 Gardenbrooke Trail","Brampton","Ontario","Canada","L6P 3L1"
"on-public:B67121:695343","Cathedral High School","30 Wentworth St N","Hamilton","Ontario","Canada","L8L 8H5"
"on-public:B67024:700088","Catholic Central","2465 McDougall St","Windsor","Ontario","Canada","N8X 3N9"
"on-public:B67032:695734","Catholic Central High School","450 Dundas St","London","Ontario","Canada","N6B 3K3"
"on-public:B66125:899003","Cawthra Park Secondary School","1305 Cawthra Rd","Mississauga","Ontario","Canada","L5G 4L1"
"on-public:B66168:899046","Cayuga Secondary School","70 Haldiamnd Hwy #54","Cayuga","Ontario","Canada","N0A 1E0"
"on-public:B66052:899178","Cedarbrae Collegiate Institute","550 Markham Rd","Scarborough","Ontario","Canada","M1H 2A2"
"on-public:B66117:899283","Centennial Collegiate and Vocational Institute","289 College Ave W","Guelph","Ontario","Canada","N1G 1S9"
"on-public:B66222:899275","Centennial Secondary School","160 Palmer Rd","Belleville","Ontario","Canada","K8P 4E1"
"on-public:B28010:891347","Central Algoma Secondary School","32 Kensington Rd","Desbarats","Ontario","Canada","P0R 1E0"
"on-public:B66044:899305","Central Elgin Collegiate Institute","201 Chestnut St","St Thomas","Ontario","Canada","N5R 2B5"
"on-public:B66052:952842","Central Etobicoke High School","10 Denfield St","Toronto","Ontario","Canada","M9R 3H1"
"on-public:B66222:900478","Central Hastings School Secondary School","129 Elgin St","Madoc","Ontario","Canada","K0K 2K0"
"on-public:B66010:899569","Central Huron Secondary School","165 Princess St E","Clinton","Ontario","Canada","N0M 1L0"
"on-public:B66125:899828","Central Peel Secondary School","32 Kennedy Rd N","Brampton","Ontario","Canada","L6V 1X4"
"on-public:B66052:899437","Central Toronto Academy","570 Shaw St","Toronto","Ontario","Canada","M6G 3L6"
"on-public:B66117:900214","Centre Dufferin District High School","150 Fourth Ave","Shelburne","Ontario","Canada","L9V 3R5"
"on-public:B66117:909831","Centre Wellington District High School","905 Scotland St","Fergus","Ontario","Canada","N1M 1Y7"
"on-public:B67059:695947","Chaminade College School","490 Queen's Dr","Toronto","Ontario","Canada","M6L 1M8"
"on-public:B28010:900869","Chapleau High School","20 Teak St","Chapleau","Ontario","Canada","P0M 1K0"
"on-public:B66192:897876","Charlottenburgh and Lancaster District High School","19743 John St","Williamstown","Ontario","Canada","K0C 2J0"
"on-public:B66036:919322","Chatham-Kent Secondary School","285 McNaughton Ave E","Chatham","Ontario","Canada","N7L 2G7"
"on-public:B28029:901121","Chelmsford Valley District Composite School","3594 144 Hwy","Chelmsford","Ontario","Canada","P0M 1L0"
"on-public:B66125:901342","Chinguacousy Secondary School","1370 WILLIAMS PKY","BRAMPTON","Ontario","Canada","L6S 1V3"
"on-public:B28037:901385","Chippewa Secondary School","539 Chippewa St W","North Bay","Ontario","Canada","P1B 6G8"
"on-public:B67113:697125","Christ the King Catholic Secondary School","161 Guelph Street","Georgetown","Ontario","Canada","L7G 4A1"
"on-public:B66052:901474","City School","635 Queen's Quay W","Toronto","Ontario","Canada","M5V 3G3"
"on-public:B66079:901687","Clarington Central Secondary School","200 Clarington Blvd","Bowmanville","Ontario","Canada","L1C 5N8"
"on-public:B66079:901512","Clarke High School","3425 Highway 35 115 Hwy","Newcastle","Ontario","Canada","L1B 0R7"
"on-public:B66044:901644","Clarke Road Secondary School","300 Clarke Rd","London","Ontario","Canada","N5W 5N4"
"on-public:B66125:901660","Clarkson Secondary School","2524 Bromsgrove Rd","Mississauga","Ontario","Canada","L5J 1L8"
"on-public:B66079:967836","Cobourg Collegiate Institute","335 King East St","Cobourg","Ontario","Canada","K9A 1M2"
"on-public:B28002:902292","Cochrane High School","453 B Chalmers Avenue","Cochrane","Ontario","Canada","P0L 1C0"
"on-public:B29106:724157","École catholique Nouveau Regard (Pavillon Jeunesse Nord)","2-399 8e rue","Cochrane","Ontario","Canada","P0L 1C0"
"on-public:B28100:902306","École secondaire CANO","3 Aurora avenue","Kapuskasing","Ontario","Canada","P5N 1J6"
"on-public:B29114:685011","École secondaire catholique Algonquin","555 Algonquin avenue","North Bay","Ontario","Canada","P1B 4W8"
"on-public:B67334:855949","École secondaire catholique Ange-Gabriel","1515 Kensington prom.","Brockville","Ontario","Canada","K6V 6H9"
"on-public:B67334:705314","École secondaire catholique Béatrice-Desloges","1999 Provence av.","Orléans","Ontario","Canada","K4A 3Y6"
"on-public:B29122:696048","École secondaire catholique Champlain","61 Brookside chemin","Chelmsford","Ontario","Canada","P0M 1L0"
"on-public:B29106:698725","École secondaire catholique Cité des Jeunes","10 Cité des Jeunes boulevard","Kapuskasing","Ontario","Canada","P5N 2K2"
"on-public:B67326:695050","École secondaire catholique de Casselman","778 Brébeuf rue","Casselman","Ontario","Canada","K0A 1M0"
"on-public:B67334:705373","École secondaire catholique de l’innovation","801 de l'Aviation prom.","Ottawa","Ontario","Canada","K1K 4R3"
"on-public:B29130:701718","École secondaire catholique de La Vérendrye","175 High Nord rue","Thunder Bay","Ontario","Canada","P7A 8C7"
"on-public:B67326:752720","École secondaire catholique de Plantagenet","6150 de comté 17 chemin","Plantagenet","Ontario","Canada","K0B 1L0"
"on-public:B29130:867587","École secondaire catholique des satellites","161 Airport, Empl 118, Comp 45 chemin 4","Dryden","Ontario","Canada","P8N 0A2"
"on-public:B67300:704717","École secondaire catholique E.J.Lajeunesse","600 E C Row ouest avenue","Windsor","Ontario","Canada","N9E 1A5"
"on-public:B67326:704920","École secondaire catholique Embrun","1276 St-Jacques rue","Embrun","Ontario","Canada","K0A 1W0"
"on-public:B67334:705233","École secondaire catholique Franco-Cité","623, Smyth chemin","Ottawa","Ontario","Canada","K1G 1N7"
"on-public:B29114:710660","École secondaire catholique Franco-Cité","90 Main rue","Sturgeon Falls","Ontario","Canada","P2B 2Z7"
"on-public:B67334:694827","École secondaire catholique Franco-Ouest","411 Seyton prom.","Nepean","Ontario","Canada","K2H 8X1"
"on-public:B67334:710903","École secondaire catholique Garneau","6588 Carrière rue","Orléans","Ontario","Canada","K1C 1J4"
"on-public:B29106:835005","École secondaire catholique Georges-Vanier","120 Ross chemin","Smooth Rock Falls","Ontario","Canada","P0L 2B0"
"on-public:B29106:711110","École secondaire catholique Hearst","30 10e rue","Hearst","Ontario","Canada","P0L 1N0"
"on-public:B67334:696021","École secondaire catholique Jeanne-Lajoie","1257 Pembroke Ouest rue","Pembroke","Ontario","Canada","K8A 5R3"
"on-public:B29122:705004","École secondaire catholique Jeunesse-Nord","117 Youngfox chemin","Blind River","Ontario","Canada","P0R 1B0"
"on-public:B29106:686085","École secondaire catholique L'Alliance","Suite 3e étage, 44 Anson promenade","Iroquois Falls","Ontario","Canada","P0K 1E0"
"on-public:B67334:723409","École secondaire catholique L'Envol","45 Johnson Drive","Trenton","Ontario","Canada","K8V 6V7"
"on-public:B29106:705020","École secondaire catholique l’Envolée du Nord","54 Duncan Sud avenue","Kirkland Lake","Ontario","Canada","P2N 1Y1"
"on-public:B67326:728330","École secondaire catholique L'Escale","1535 du Parc avenue","Rockland","Ontario","Canada","K4K 1K6"
"on-public:B67300:728772","École secondaire catholique l'Essor","13605 St.Gregory chemin","Tecumseh","Ontario","Canada","N8N 3E4"
"on-public:B29122:771473","École secondaire catholique l'Horizon","1650 Valleyview chemin","Val Caron","Ontario","Canada","P3N 1K7"
"on-public:B67326:725684","École secondaire catholique La Citadelle","510 McConnell avenue","Cornwall","Ontario","Canada","K6H 4M1"
"on-public:B29122:755770","École secondaire catholique La Renaissance","301 Church rue","Espanola","Ontario","Canada","P5E 1B3"
"on-public:B67326:752908","École secondaire catholique Le Relais","100 McNabb rue","Alexandria","Ontario","Canada","K0C 1A0"
"on-public:B29114:710504","École secondaire catholique Élisabeth-Bruyère","359 Brydges rue","Mattawa","Ontario","Canada","P0H 1V0"
"on-public:B67334:846435","École secondaire catholique Mer Bleue","6401 Renaud Rd","Orléans","Ontario","Canada","K1W 0H8"
"on-public:B67300:708500","École secondaire catholique Monseigneur-Bruyère","920 Huron rue","London","Ontario","Canada","N5Y 4K4"
"on-public:B67334:804005","École secondaire catholique Notre-Dame","11 Beattie Lane","Kemptville","Ontario","Canada","K0G 1J0"
"on-public:B67300:705438","École secondaire catholique Notre-Dame","700 Bristol rue","Woodstock","Ontario","Canada","N4T 0E4"
"on-public:B67334:758231","École secondaire catholique Paul-Desmarais","5315 Abbott","Ottawa","Ontario","Canada","K2S 0X3"
"on-public:B67334:832670","École secondaire catholique Pierre-Savard","1110 Longfields prom.","Nepean","Ontario","Canada","K2J 0H9"
"on-public:B67326:713740","École secondaire catholique régionale de Hawkesbury","572 Kitchener rue","Hawkesbury","Ontario","Canada","K6A 2P3"
"on-public:B67300:705101","École secondaire catholique Saint-Dominique-Savio","800 23e est rue","Owen Sound","Ontario","Canada","N4K 6Z5"
"on-public:B67300:791601","École secondaire catholique Saint-François-Xavier","901 Les Rapides promenade","Sarnia","Ontario","Canada","N7S 6K2"
"on-public:B67334:735353","École secondaire catholique Saint-Jean-Baptiste","96 Empress Ave","Ottawa","Ontario","Canada","K1R 7G3"
"on-public:B29122:701700","École secondaire catholique Saint-Joseph","101 Churchill avenue","Wawa","Ontario","Canada","P0S 1K0"
"on-public:B29106:822507","École secondaire catholique Sainte-Marie","340 Hessle avenue","New Liskeard","Ontario","Canada","P0J 1P0"
"on-public:B67334:750085","École secondaire catholique Sainte-Marie-Rivier","1381 Demers av.","Kingston","Ontario","Canada","K7M 0J1"
"on-public:B67334:695955","École secondaire catholique Samuel-Genest","704 Carson's chemin","Ottawa","Ontario","Canada","K1K 2H3"
"on-public:B29106:864650","École secondaire catholique Thériault","341 Thériault boulevard","Timmins","Ontario","Canada","P4N 7K3"
"on-public:B29122:704970","École secondaire catholique Trillium","9 Broomhead rue","Chapleau","Ontario","Canada","P0M 1K0"
"on-public:B28118:912573","École secondaire Château-Jeunesse","167 Centennial promenade","Longlac","Ontario","Canada","P0T 2A0"
"on-public:B28118:924792","École secondaire Cité-Supérieure","14 Hemlo promenade","Marathon","Ontario","Canada","P0T 2E0"
"on-public:B66303:922089","École secondaire David Saint-Jacques","80 Burlington Drive","Kitchener","Ontario","Canada","N2B 1T5"
"on-public:B28118:911100","École secondaire de la Rivière-des-Français","11 Lahaie rue","Noëlville","Ontario","Canada","P0M 2N0"
"on-public:B66303:961008","École secondaire de Lamothe-Cadillac","1775 TOTTEN ST","WINDSOR","Ontario","Canada","N9B 1X4"
"on-public:B29122:705110","École secondaire du Sacré-Coeur","261 Notre-Dame avenue","Sudbury","Ontario","Canada","P3C 5K4"
"on-public:B66303:909858","École secondaire Franco-Jeunesse","901 promenade Rapids av","Sarnia","Ontario","Canada","N7S 6K2"
"on-public:B66303:907553","École secondaire Franco-Niagara","670 Tanguay avenue","Welland","Ontario","Canada","L3B 4G2"
"on-public:B66303:914723","École secondaire Gaétan Gervais","1075 McCraney Rue","OAKVILLE","Ontario","Canada","L6H 1H9"
"on-public:B66303:910554","École secondaire Gabriel-Dumont","2463 boulevard Evans","London","Ontario","Canada","N6M 0B1"
"on-public:B66303:907308","École secondaire Georges-P-Vanier","100 Macklin N rue","Hamilton","Ontario","Canada","L8S 3S1"
"on-public:B28118:907448","École secondaire Hanmer","4800 Notre Dame ave","Hanmer","Ontario","Canada","P3P 1X5"
"on-public:B66303:907642","École secondaire Jeunes sans frontières","7585 Financial promenade","Brampton","Ontario","Canada","L6Y 5P4"
"on-public:B28100:918296","École secondaire l'Alliance","296 Cambridge avenue","Iroquois Falls","Ontario","Canada","P0K 1E0"
"on-public:B28118:890817","École secondaire l'Orée des Bois","159 Avenue du Parc","Dubreuilville","Ontario","Canada","P0S 1B0"
"on-public:B66303:934852","École secondaire Le Caron","22 John rue","Penetanguishene","Ontario","Canada","L9M 1N8"
"on-public:B28118:907570","École secondaire Macdonald-Cartier","37 Lasalle ouest boul","Sudbury","Ontario","Canada","P3A 1W1"
"on-public:B66303:954651","École secondaire Michelle-O'Bonsawin","24 Mountjoy Avenue","Toronto","Ontario","Canada","M4J 1J6"
"on-public:B66303:896889","École secondaire Norval-Morrisseau","51 Wright rue","Richmond Hill","Ontario","Canada","L4C 4A1"
"on-public:B29122:707511","École secondaire Notre-Dame-du-Sault","600 North rue","Sault Ste Marie","Ontario","Canada","P6B 2B9"
"on-public:B67300:707015","École secondaire Pain Court","PO Box C.P.100, 14 Notre Dame rue","Pain Court","Ontario","Canada","N0P 1Z0"
"on-public:B28100:966753","École secondaire Passeport Jeunesse","75 9e Rue","Hearst","Ontario","Canada","P0L 1N0"
"on-public:B28100:922874","École secondaire publique aux Quatre-Vents","1 College Promenade","Parry Sound","Ontario","Canada","P2A 0A9"
"on-public:B66311:891328","École secondaire publique Campus secondaire l'Héritage","33 Lochiel Street","Alexandria","Ontario","Canada","K0C 1A0"
"on-public:B66311:907430","École secondaire publique De La Salle","501 ancienne St-Patrick rue","Ottawa","Ontario","Canada","K1N 8R3"
"on-public:B28100:919055","École secondaire publique Echo du Nord","2 Montgomery avenue","Kapuskasing","Ontario","Canada","P5N 0A4"
"on-public:B66311:912662","École secondaire publique Gisèle-Lalonde","500 Millennium boulevard","Orléans","Ontario","Canada","K4A 4X3"
"on-public:B66311:898582","École secondaire publique L'Académie de la Seigneurie","731 des Pommiers rue","Casselman","Ontario","Canada","K0A 1M0"
"on-public:B66311:920550","École secondaire publique L'Alternative","2720 Richmond Rd","Ottawa","Ontario","Canada","K2B 6S2"
"on-public:B66311:907464","École secondaire publique L'Héritage","1111 Montréal chemin","Cornwall","Ontario","Canada","K6H 1E1"
"on-public:B66311:907480","École secondaire publique L'Équinoxe","399 Isabella rue","PEMBROKE","Ontario","Canada","K8A 5T4"
"on-public:B66311:949540","École secondaire publique Le Sommet","894 Cécile boulevard","Hawkesbury","Ontario","Canada","K6A 3R5"
"on-public:B66311:904945","École secondaire publique Louis-Riel","1655 Bearbrook chemin","Gloucester","Ontario","Canada","K1B 4N3"
"on-public:B66311:901539","École secondaire publique Marc-Garneau","30 Fullerton avenue","Trenton","Ontario","Canada","K8V 1E4"
"on-public:B66311:930144","École secondaire publique Maurice-Lapointe","17 BRIDGESTONE DR","KANATA","Ontario","Canada","K2M 0E9"
"on-public:B66311:907472","École secondaire publique Mille-Iles","158 Patrick rue","Kingston","Ontario","Canada","K7K 3P5"
"on-public:B28100:946117","École secondaire publique Nipissing Ouest","175 Ethel rue","Sturgeon Falls","Ontario","Canada","P2B 2Z8"
"on-public:B28100:909335","École secondaire publique Odyssée","480 Norman ave","North Bay","Ontario","Canada","P1B 0A8"
"on-public:B66311:907421","École secondaire publique Omer-Deslauriers","159 Chesterton promenade","Ottawa","Ontario","Canada","K2E 7E6"
"on-public:B66311:890139","École secondaire publique Pierre-de-Blois","1310 Chapman Mills Drive","Nepean","Ontario","Canada","K2J 6L9"
"on-public:B66311:903237","École secondaire publique Rivière-Rideau","830 Heritage Boulevard","Kemptville","Ontario","Canada","K0G 1J0"
"on-public:B66311:945735","École secondaire publique Rockland","927 St Jean Street","Rockland","Ontario","Canada","K4K 1P4"
"on-public:B28100:922870","École secondaire Renaissance","301 Shirley N rue","Timmins","Ontario","Canada","P4R 1N5"
"on-public:B66303:925326","École secondaire Roméo Dallaire","736 Essa chemin","Barrie","Ontario","Canada","L4N 9E9"
"on-public:B66303:901037","École secondaire Ronald-Marion","2235 Brock chemin","Pickering","Ontario","Canada","L1V 2P8"
"on-public:B66303:907588","École secondaire Étienne-Brûlé","300 Banbury chemin","North York","Ontario","Canada","M2L 2V3"
"on-public:B66303:952803","École secondaire Toronto Ouest","330 Lansdowne avenue","Toronto","Ontario","Canada","M6H 3Y1"
"on-public:B28118:965570","École secondaire Villa Française des Jeunes","11 Edinburgh ch","Elliot Lake","Ontario","Canada","P5A 2M3"
"on-public:B66303:918997","Collège français secondaire","100 Carlton rue","Toronto","Ontario","Canada","M5B 1M3"
"on-public:B29122:698989","Collège Notre-Dame","100 Lévis rue","Sudbury","Ontario","Canada","P3C 2H1"
"on-public:B66044:902420","College Avenue Secondary School","700 College Ave","Woodstock","Ontario","Canada","N4S 2C8"
"on-public:B66109:902551","Collingwood Collegiate Institute","6 Cameron St","Collingwood","Ontario","Canada","L9Y 2J2"
"on-public:B66184:902586","Colonel By Secondary School","2381 Ogilvie Rd","Gloucester","Ontario","Canada","K1J 7N4"
"on-public:B28029:895237","Confederation Secondary School","1918 Main Street","Val Caron","Ontario","Canada","P3N 1B4"
"on-public:B66052:902640","Contact Alternative School School","Suite Third Floor, 132 Saint Patrick St","Toronto","Ontario","Canada","M5T 1V1"
"on-public:B66192:902810","Cornwall Collegiate and Vocational School","437 Sydney Street","Cornwall","Ontario","Canada","K6H 3H9"
"on-public:B67113:761182","Corpus Christi Catholic Secondary School","5150 UPPER MIDDLE RD","BURLINGTON","Ontario","Canada","L7L 0E5"
"on-public:B66079:903078","Courtice Secondary School","Nash Rd & Courtice Rd","Courtice","Ontario","Canada","L1E 2L8"
"on-public:B66133:967740","Craig Kielburger Secondary School","1151 Ferguson Drive","Milton","Ontario","Canada","L9T 7V8"
"on-public:B66079:903337","Crestwood Secondary School","1885 Sherbrooke St","Peterborough","Ontario","Canada","K9J 6X4"
"on-public:B28045:902748","Crolancia Secondary School","1 Trudel Drive","Pickle Lake","Ontario","Canada","P0V 3A0"
"on-public:B67059:702935","Dante Alighieri Academy","2 St. Andrews Blvd.","Etobicoke","Ontario","Canada","M9R 1V8"
"on-public:B66052:903590","David and Mary Thomson Collegiate Institute","125 Brockley Drive","Scarborough","Ontario","Canada","M1P 0E1"
"on-public:B66125:909673","David Suzuki Secondary School","45 Daviselm Drive","Brampton","Ontario","Canada","L6X 0Z3"
"on-public:B66117:953571","Day School -Wellington Centre - ContEd","1428 Gordon St","Guelph","Ontario","Canada","N1L 1C8"
"on-public:B66168:903728","Delhi District Secondary School","393 James St","Delhi","Ontario","Canada","N4B 2B6"
"on-public:B66052:892483","Delphi Secondary Alternative School","109 Chartland Blvd S","Scarborough","Ontario","Canada","M1S 2R7"
"on-public:B67156:703796","Denis Morris Catholic High School","40 Glen Morris Dr","St Catharines","Ontario","Canada","L2T 2M9"
"on-public:B66052:904112","Don Mills Collegiate Institute","15 The Donway E","North York","Ontario","Canada","M3C 1X6"
"on-public:B66060:904392","Donald A Wilson Secondary School","681 Rossland Rd. W","Whitby","Ontario","Canada","L1P 1Y1"
"on-public:B66052:904635","Downsview Secondary School","7 Hawksdale Rd","North York","Ontario","Canada","M3K 1W3"
"on-public:B66133:893675","Dr. Frank J. Hayden Secondary School","3040 Tim Dobbie Drive","Burlington","Ontario","Canada","L7M 0M3"
"on-public:B66095:905020","Dr G W Williams Secondary School","11 Spring Farm Rd","Aurora","Ontario","Canada","L4G 7W2"
"on-public:B66095:904970","Dr John M Denison Secondary School","135 Bristol Rd","Newmarket","Ontario","Canada","L3Y 8J7"
"on-public:B66052:937592","Dr Norman Bethune Collegiate Institute","200 Fundy Bay Blvd","Toronto","Ontario","Canada","M1W 3G1"
"on-public:B28045:905283","Dryden High School","79 Casimir Ave","Dryden","Ontario","Canada","P8N 2H4"
"on-public:B66150:935455","DSBN Academy","130 Louth Street","St. Catharines","Ontario","Canada","L2S 2T4"
"on-public:B66060:905674","Dunbarton High School","655 Sheppard Ave","Pickering","Ontario","Canada","L1V 1G2"
"on-public:B66141:916579","Dundas Valley Secondary School","310 Governor's Road","Dundas","Ontario","Canada","L9H 5P8"
"on-public:B66168:906069","Dunnville Secondary School","110 Helena St","Dunnville","Ontario","Canada","N1A 2S5"
"on-public:B66150:906328","E L Crossley Secondary School","350 20 Hwy","Fonthill","Ontario","Canada","L0S 1E0"
"on-public:B66052:906450","Earl Haig Secondary School","100 Princess Ave","North York","Ontario","Canada","M2N 3R7"
"on-public:B66184:906484","Earl of March Secondary School","No. 4 The Parkway","Kanata","Ontario","Canada","K2K 1Y4"
"on-public:B66044:906581","East Elgin Secondary School","362 Talbot St W","Aylmer","Ontario","Canada","N5H 1K6"
"on-public:B66079:906719","East Northumberland Secondary School","71 Dundas St","Brighton","Ontario","Canada","K0K 1H0"
"on-public:B66052:906875","East York Alternative Secondary School","670 Cosburn Ave","East York","Ontario","Canada","M4C 2V2"
"on-public:B66052:906840","East York Collegiate Institute","650 Cosburn Ave","East York","Ontario","Canada","M4C 2V2"
"on-public:B66060:906565","Eastdale Collegiate and Vocational Institute","265 Harmony Rd N","Oshawa","Ontario","Canada","L1G 6L4"
"on-public:B66052:907103","Eastdale Collegiate Institute","701 Gerrard St E","Toronto","Ontario","Canada","M4M 1Y4"
"on-public:B66150:906972","Eastdale Secondary School","170 Wellington St","Welland","Ontario","Canada","L3B 1B3"
"on-public:B66222:927252","Eastside Secondary School","275 Farley Ave","Belleville","Ontario","Canada","K8N 4M2"
"on-public:B66109:907383","Eastview Secondary School","421 Grove St E","Barrie","Ontario","Canada","L4M 5S1"
"on-public:B66176:907499","Eastwood Collegiate Institute","760 Weber St E","Kitchener","Ontario","Canada","N2H 1H6"
"on-public:B28010:908010","Elliot Lake Secondary School","303 Mississauga Ave","Elliot Lake","Ontario","Canada","P5A 1E8"
"on-public:B66176:908142","Elmira District Secondary School","4 University Ave","Elmira","Ontario","Canada","N3B 1K2"
"on-public:B66109:908274","Elmvale District High School","25 Lawson Ave","Elmvale","Ontario","Canada","L0L 1P0"
"on-public:B66133:913260","Elsie MacGill Secondary School","1410 Bronte St.","Milton","Ontario","Canada","L9E 1B9"
"on-public:B66052:908665","Emery Collegiate Institute","3395 Weston Rd","North York","Ontario","Canada","M9M 2V9"
"on-public:B66052:954167","Emery EdVance Secondary School","3395 Weston Road","Toronto","Ontario","Canada","M9M 2V9"
"on-public:B66095:908819","Emily Carr Secondary School","4901 Rutherford Rd","Woodbridge","Ontario","Canada","L4H 3C2"
"on-public:B28002:908924","Englehart High School","61 Fourth St","Englehart","Ontario","Canada","P0J 1H0"
"on-public:B66028:920100","Erie Migration District Secondary School","170 Main St E","Kingsville","Ontario","Canada","N9Y 1A6"
"on-public:B66117:909050","Erin District High School","14 Boland Dr","Erin","Ontario","Canada","N0B 1T0"
"on-public:B66125:909092","Erindale Secondary School","2021 DUNDAS ST","MISSISSAUGA","Ontario","Canada","L5K 1R2"
"on-public:B66206:909181","Ernestown Secondary School","50 Main St","Odessa","Ontario","Canada","K0H 2H0"
"on-public:B28029:909319","Espanola High School","147 Spruce St","Espanola","Ontario","Canada","P5E 1R7"
"on-public:B66028:909440","Essex District High School","244 Talbot St N","Essex","Ontario","Canada","N8M 2E1"
"on-public:B66052:909572","Etobicoke Collegiate Institute","86 Montgomery Rd","Etobicoke","Ontario","Canada","M9A 3N5"
"on-public:B66052:924246","Etobicoke Secondary Alternative School","160 Silverhill Drive","Toronto","Ontario","Canada","M9B 3W7"
"on-public:B66010:953776","F E Madill Secondary School","231 Madill Dr","Wingham","Ontario","Canada","N0G 2W0"
"on-public:B67024:706523","F J Brennan Catholic High School","910 Raymo Rd","Windsor","Ontario","Canada","N8Y 4A6"
"on-public:B28037:925179","F J McElligott Secondary School","PO Box Box 100, 370 Pine St","Mattawa","Ontario","Canada","P0H 1V0"
"on-public:B67075:849901","Father Bressani Catholic High School","250 Ansley Grove Rd","Woodbridge","Ontario","Canada","L4L 3W4"
"on-public:B67059:707589","Father Henry Carr Catholic Secondary School","1760 Martin Grove Road","Toronto","Ontario","Canada","M9V 3S4"
"on-public:B67059:731951","Father John Redmond Catholic Secondary School","28 Colonel Samuel Smith Park Dr","Toronto","Ontario","Canada","M8V 4B7"
"on-public:B67105:710083","Father Leo J Austin Catholic Secondary School","1020 Dryden Blvd","Whitby","Ontario","Canada","L1R 2A2"
"on-public:B67083:706957","Father Michael Goetz Secondary School","330 Central Pkwy W","Mississauga","Ontario","Canada","L5B 3K6"
"on-public:B67075:706809","Father Michael McGivney Catholic High School","5300 14th Ave","Markham","Ontario","Canada","L3S 3K8"
"on-public:B66214:925365","Fellowes High School","420 Bell St","Pembroke","Ontario","Canada","K8A 2K5"
"on-public:B66087:909700","Fenelon Falls Secondary School","66 Lindsay St","Fenelon Falls","Ontario","Canada","K0M 1N0"
"on-public:B66125:910058","Fletcher's Meadow Secondary School","10750 Chinguacousy Rd","Brampton","Ontario","Canada","L7A 2Z7"
"on-public:B66176:910350","Forest Heights Collegiate Institute","255 Fischer-Hallman Rd","Kitchener","Ontario","Canada","N2M 4X8"
"on-public:B66052:910481","Forest Hill Collegiate Institute","730 Eglinton Ave W","Toronto","Ontario","Canada","M5N 1B9"
"on-public:B28053:910872","Fort Frances High School","440 McIrvine Rd","Fort Frances","Ontario","Canada","P9A 3T8"
"on-public:B67059:707708","Francis Libermann Catholic High School","4640 Finch Ave E","Toronto","Ontario","Canada","M1S 4G2"
"on-public:B66206:911135","Frontenac Secondary School","1789 Bath Rd","Kingston","Ontario","Canada","K7M 4Y3"
"on-public:B66044:911259","G A Wheable Secondary School","70 Jacqueline St","London","Ontario","Canada","N5Z 3P7"
"on-public:B66060:911291","G L Roberts Collegiate and Vocational Institute","399 Chaleur Ave","Oshawa","Ontario","Canada","L1J 1G5"
"on-public:B66192:911526","Gananoque Secondary School","175 William Street South","Gananoque","Ontario","Canada","K7G 1S8"
"on-public:B66133:901439","Garth Webb Secondary School","2820 Westoak Trails Boulevard","Oakville","Ontario","Canada","L6M 4W2"
"on-public:B66052:912301","George S Henry Academy","200 Graydon Hall Dr","North York","Ontario","Canada","M3A 3A6"
"on-public:B66052:912360","Georges Vanier Secondary School","3000 Don Mills Rd","North York","Ontario","Canada","M2J 3B6"
"on-public:B66133:912433","Georgetown District High School","70 Guelph St","Georgetown","Ontario","Canada","L7G 3Z5"
"on-public:B66001:925438","Georgian Bay Community School Secondary School","197799 Grey Rd 7","Meaford","Ontario","Canada","N4L 1W7"
"on-public:B66109:928151","Georgian Bay District Secondary School","925 Hugel Avenue","Midland","Ontario","Canada","L4R 1X8"
"on-public:B28070:912565","Geraldton Composite School","PO Box Box 909, 500 Second St W","Geraldton","Ontario","Canada","P0T 1M0"
"on-public:B66184:912697","Glebe Collegiate Institute","212 Glebe Ave","Ottawa","Ontario","Canada","K1S 2C9"
"on-public:B66044:912824","Glencoe District High School","3581 Concession Drive","Glencoe","Ontario","Canada","N0L 1M0"
"on-public:B66044:912956","Glendale High School","37 Glendale Dr","Tillsonburg","Ontario","Canada","N4G 1J6"
"on-public:B66141:913081","Glendale Secondary School","145 Rainbow Drive","Hamilton","Ontario","Canada","L8K 4G1"
"on-public:B66125:913189","Glenforest Secondary School","3575 Fieldgate Dr","Mississauga","Ontario","Canada","L4X 2J6"
"on-public:B66192:913219","Glengarry District High School","212 Main Street North","Alexandria","Ontario","Canada","K0C 1A0"
"on-public:B66176:913340","Glenview Park Secondary School","55 McKay St","Cambridge","Ontario","Canada","N1R 4G6"
"on-public:B66184:913472","Gloucester High School","2060 Ogilvie Rd","Gloucester","Ontario","Canada","K1J 7N8"
"on-public:B66010:913600","Goderich District Collegiate Institute","260 South St","Goderich","Ontario","Canada","N7A 3M5"
"on-public:B66150:914010","Governor Simcoe Secondary School","15 Glenview Ave","St Catharines","Ontario","Canada","L2N 2Z7"
"on-public:B66176:914070","Grand River Collegiate Institute","175 Indian Rd","Kitchener","Ontario","Canada","N2B 2S7"
"on-public:B66206:930348","Granite Ridge Education Centre Secondary School","14432 Road 38","Sharbot Lake","Ontario","Canada","K0H 2P0"
"on-public:B66087:914380","Gravenhurst High School","325 Mary St S","Gravenhurst","Ontario","Canada","P1P 1X7"
"on-public:B66036:890861","Great Lakes Secondary School","275 Wellington Street","Sarnia","Ontario","Canada","N7T 1H1"
"on-public:B66150:897646","Greater Fort Erie Secondary School","1640 Garrison Road","Fort Erie","Ontario","Canada","L2A 5M4"
"on-public:B66052:943940","Greenwood Secondary School","800 Greenwood Avenue","Toronto","Ontario","Canada","M4J 4B7"
"on-public:B66001:914444","Grey Highlands Secondary School","100 Toronto Rd. S.","Flesherton","Ontario","Canada","N0C 1E0"
"on-public:B66117:914770","Guelph Collegiate and Vocational Institute","155 Paisley St","Guelph","Ontario","Canada","N1H 2P3"
"on-public:B66044:914908","H B Beal Secondary School","525 Dundas St","London","Ontario","Canada","N6B 1W5"
"on-public:B66168:915033","Hagersville Secondary School","70 Parkview Rd","Hagersville","Ontario","Canada","N0A 1H0"
"on-public:B66087:915297","Haliburton Highland Secondary School","5358 County Rd. 21","Haliburton","Ontario","Canada","K0M 1S0"
"on-public:B28061:915424","Hammarskjold High School","80 Clarkson St S","Thunder Bay","Ontario","Canada","P7B 4W8"
"on-public:B66052:915688","Harbord Collegiate Institute","286 Harbord St","Toronto","Ontario","Canada","M6G 1G5"
"on-public:B66125:943916","Harold M. Brathwaite Secondary School","415 Great Lakes Dr","Brampton","Ontario","Canada","L6R 2Z4"
"on-public:B28002:916293","Hearst High School","27 10th St","Hearst","Ontario","Canada","P0L 1N0"
"on-public:B66125:916269","Heart Lake Secondary School","296 Conestoga Dr","Brampton","Ontario","Canada","L6Z 3M1"
"on-public:B66060:916331","Henry Street High School","600 HENRY ST","WHITBY","Ontario","Canada","L1N 5C7"
"on-public:B66141:891401","Hill Park System Alternative Education","Suite Suite 104, 100 James Street","Hamilton","Ontario","Canada","L8P 2Z2"
"on-public:B66184:916854","Hillcrest High School","1900 Dauphin Rd","Ottawa","Ontario","Canada","K1G 2L7"
"on-public:B66095:949230","Hodan Nalayeh Secondary School","1401 Clark Ave W","Thornhill","Ontario","Canada","L4J 7R4"
"on-public:B67075:720488","Holy Cross Catholic Academy High School","7501 Martin Grove Rd","Woodbridge","Ontario","Canada","L4L 9E4"
"on-public:B67202:715298","Holy Cross Catholic Secondary School","1085 Woodbine Rd","Kingston","Ontario","Canada","K7P 2V9"
"on-public:B67067:704261","Holy Cross Catholic Secondary School","1355 Lansdowne St W","Peterborough","Ontario","Canada","K9J 7M3"
"on-public:B67156:715247","Holy Cross Catholic Secondary School","460 Linwell Rd","St Catharines","Ontario","Canada","L2M 2P9"
"on-public:B67032:704253","Holy Cross Catholic Secondary School","367 Second St","Strathroy","Ontario","Canada","N7G 4K6"
"on-public:B67083:718114","Holy Name of Mary Secondary School","115 Glenvale Boulevard","Brampton","Ontario","Canada","L6S 3J7"
"on-public:B67024:715824","Holy Names Catholic High School","1400 Northwood","Windsor","Ontario","Canada","N9E 1A4"
"on-public:B67091:711098","Holy Trinity Catholic High School","PO Box Box 865, 100 Melbourne Dr","Bradford","Ontario","Canada","L3Z 2B3"
"on-public:B67180:724742","Holy Trinity Catholic High School","180 Katimavik Rd","Kanata","Ontario","Canada","K2L 4A7"
"on-public:B67164:720232","Holy Trinity Catholic High School","128 Evergreen Hill Rd","Simcoe","Ontario","Canada","N3Y 4N5"
"on-public:B67067:720240","Holy Trinity Catholic Secondary School","2260 Courtice Rd","Courtice","Ontario","Canada","L1E 2M8"
"on-public:B67113:704300","Holy Trinity Catholic Secondary School","2420 Sixth Line","Oakville","Ontario","Canada","L6H 5Z8"
"on-public:B67172:715190","Holy Trinity Catholic Secondary School","18044 Tyotown Rd","South Glengarry","Ontario","Canada","K6H 7S6"
"on-public:B66028:917249","Hon W C Kennedy Collegiate Institute","245 Tecumseh Rd E","Windsor","Ontario","Canada","N8X 2R2"
"on-public:B28010:917370","Hornepayne High School","162 Fourth Avenue","Hornepayne","Ontario","Canada","P0M 1Z0"
"on-public:B66052:917630","Humberside Collegiate Institute","280 Quebec Ave","Toronto","Ontario","Canada","M6P 2V3"
"on-public:B66125:917559","Humberview Secondary School","135 Kingsview Dr","Bolton","Ontario","Canada","L7E 3V8"
"on-public:B66087:917761","Huntsville High School","58 Brunel Rd","Huntsville","Ontario","Canada","P1H 2A2"
"on-public:B66176:917931","Huron Heights Secondary School","1825 Strasburg Road","Kitchener","Ontario","Canada","N2R 1S3"
"on-public:B66095:917893","Huron Heights Secondary School","40 Huron Heights Dr","Newmarket","Ontario","Canada","L3Y 3J9"
"on-public:B66044:918024","Huron Park Secondary School","900 Cromwell St","Woodstock","Ontario","Canada","N4S 5B5"
"on-public:B66087:918130","I E Weldon Secondary School","24 Weldon Rd","Lindsay","Ontario","Canada","K9V 4R4"
"on-public:B28045:918113","Ignace Secondary School","194 Davy Lake Rd","Ignace","Ontario","Canada","P0T 1T0"
"on-public:B67180:721085","Immaculata High School","140 Main St","Ottawa","Ontario","Canada","K1S 5P4"
"on-public:B66044:918156","Ingersoll District Collegiate Institute","37 Alma St","Ingersoll","Ontario","Canada","N5C 1N1"
"on-public:B66052:918237","Inglenook Community School","19 Sackville St","Toronto","Ontario","Canada","M5A 3E1"
"on-public:B66109:918253","Innisdale Secondary School","95 Little Ave","Barrie","Ontario","Canada","L4N 2Z4"
"on-public:B67083:722790","Iona Secondary School","2170 South Sheridan Way","Mississauga","Ontario","Canada","L5J 2M4"
"on-public:B28002:918288","Iroquois Falls Secondary School","44 Anson Dr","Iroquois Falls","Ontario","Canada","P0K 1E0"
"on-public:B66133:918300","Iroquois Ridge High School","1123 Glenashton Dr","Oakville","Ontario","Canada","L6H 5M1"
"on-public:B66060:918423","J Clarke Richardson Collegiate Institute","1355 HARWOOD AVE","AJAX","Ontario","Canada","L1T 4G8"
"on-public:B66176:918555","Jacob Hespeler Secondary School","355 Holiday Inn Dr","Cambridge","Ontario","Canada","N3C 1Z2"
"on-public:B67059:723096","James Cardinal McGuigan Catholic High School","1440 Finch Ave W","Toronto","Ontario","Canada","M3J 3G3"
"on-public:B66052:918547","Jarvis Collegiate Institute","495 Jarvis St","Toronto","Ontario","Canada","M4Y 2G8"
"on-public:B66125:935244","Jean Augustine Secondary School","500 Elbern Markell Drive","Brampton","Ontario","Canada","L6X 5L3"
"on-public:B67083:724564","John Cabot Catholic Secondary School","635 Willowbank Trail","Mississauga","Ontario","Canada","L4W 3L6"
"on-public:B66001:915556","John Diefenbaker Senior School","201 18Th Ave","Hanover","Ontario","Canada","N4N 3S5"
"on-public:B66117:918679","John F Ross Collegiate and Vocational Institute","21 Meyer Dr","Guelph","Ontario","Canada","N1E 4H1"
"on-public:B66125:918830","John Fraser Secondary School","2665 Erin Centre Blvd","Mississauga","Ontario","Canada","L5M 5H6"
"on-public:B66184:918954","John McCrae Secondary School","103 Malvern Dr","Nepean","Ontario","Canada","K2J 4T2"
"on-public:B66036:918938","John McGregor Secondary School","300 Cecile Ave","Chatham","Ontario","Canada","N7M 2C6"
"on-public:B67032:724513","John Paul II Catholic Secondary School","1300 Oxford St E","London","Ontario","Canada","N5V 4P7"
"on-public:B66052:906736","John Polanyi Collegiate Institute","640 Lawrence Avenue West","Toronto","Ontario","Canada","M6A 1B1"
"on-public:B66052:943062","Kapapamahchakwew - Wandering Spirit Scho","16 Phin Avenue","Toronto","Ontario","Canada","M4J 3T2"
"on-public:B28002:919063","Kapuskasing District High School","61 Devonshire St","Kapuskasing","Ontario","Canada","P5N 1C5"
"on-public:B66206:936740","Katarokwi Learning Centre","164 Van Order Dr","Kingston","Ontario","Canada","K7M 1C1"
"on-public:B66079:919195","Kenner Collegiate and Vocational Institute","633 Monaghan Rd S","Peterborough","Ontario","Canada","K9J 5J2"
"on-public:B66095:919233","Keswick High School","100 Biscayne Blvd","Keswick","Ontario","Canada","L4P 3L5"
"on-public:B66001:919454","Kincardine District Secondary School","885 River Lane","Kincardine","Ontario","Canada","N2Z 2B9"
"on-public:B66095:919586","King City Secondary School","2001 King Rd","King City","Ontario","Canada","L7B 1K2"
"on-public:B66206:931089","Kingston Secondary School","145 Kirkpatrick Street","Kingston","Ontario","Canada","K7K 2P4"
"on-public:B66052:920231","Kipling Collegiate Institute","380 The Westway","Etobicoke","Ontario","Canada","M9R 1H4"
"on-public:B28010:920533","Korah Collegiate and Vocational School","636 Goulais Ave","Sault Ste Marie","Ontario","Canada","P6C 5A7"
"on-public:B66052:920576","L'Amoreaux Collegiate Institute","2501 Bridletowne Circle","Agincourt","Ontario","Canada","M1W 2K1"
"on-public:B66206:920592","La Salle Secondary School","773 Highway 15","Kingston","Ontario","Canada","K7L 4V3"
"on-public:B28070:940666","Lake Superior High School","PO Box Box 730, 19 Hudson Dr","Terrace Bay","Ontario","Canada","P0T 2W0"
"on-public:B67156:726087","Lakeshore Catholic High School","150 Janet St","Port Colborne","Ontario","Canada","L3K 2E7"
"on-public:B66052:921092","Lakeshore Collegiate Institute","350 Kipling Ave","Etobicoke","Ontario","Canada","M8V 3L1"
"on-public:B66036:921408","Lambton Central Collegiate and Vocational Institute","4141 Dufferin Ave","Petrolia","Ontario","Canada","N0N 1R0"
"on-public:B66036:921530","Lambton Kent Composite School","231 St George St N","Dresden","Ontario","Canada","N0P 1M0"
"on-public:B66095:921661","Langstaff Secondary School","106 Garden Ave","Richmond Hill","Ontario","Canada","L4C 6M1"
"on-public:B28029:920622","Lasalle Secondary School","1545 Kennedy St","Sudbury","Ontario","Canada","P3A 2G1"
"on-public:B66184:926195","Launch Secondary School","Suite Building J213, 1385 Woodroffe Avenue","Nepean","Ontario","Canada","K2G 1V8"
"on-public:B66150:921750","Laura Secord Secondary School","349 Niagara St","St Catharines","Ontario","Canada","L2M 4V9"
"on-public:B66176:942006","Laurel Heights Secondary School","650 Laurelwood Dr","Waterloo","Ontario","Canada","N2V 2V1"
"on-public:B66052:922056","Lawrence Park Collegiate Institute","125 Chatsworth Dr","Toronto","Ontario","Canada","M4R 1S1"
"on-public:B66028:922188","Leamington District Secondary School","80 Oak Street","Leamington","Ontario","Canada","N8H 2B3"
"on-public:B66052:922315","Leaside High School","200 Hanna Rd","East York","Ontario","Canada","M4G 3N8"
"on-public:B67180:689181","Lester B Pearson Catholic High School","2072 Jasmine Cres","Gloucester","Ontario","Canada","K1J 8M5"
"on-public:B66052:922498","Lester B Pearson Collegiate Institute","150 Tapscott Rd","Scarborough","Ontario","Canada","M1B 2L2"
"on-public:B66125:952885","Lincoln M. Alexander Secondary School","3545 Morning Star Dr","Mississauga","Ontario","Canada","L4T 1Y3"
"on-public:B66184:922960","Lisgar Collegiate Institute","29 Lisgar St","Ottawa","Ontario","Canada","K2P 0B9"
"on-public:B66010:923095","Listowel District Secondary School","155 Maitland Ave S","Listowel","Ontario","Canada","N4W 2M4"
"on-public:B28029:923354","Lively District Secondary School","265 Fifth Ave","Lively","Ontario","Canada","P3Y 1M4"
"on-public:B28029:923486","Lo-Ellen Park Secondary School","275 Loach's Rd","Sudbury","Ontario","Canada","P3E 2P8"
"on-public:B28029:923613","Lockerby Composite School","1391 Ramsey View Crt","Sudbury","Ontario","Canada","P3E 5T4"
"on-public:B66044:923745","London Central Secondary School","509 Waterloo St","London","Ontario","Canada","N6B 2P8"
"on-public:B66044:923877","London South Collegiate Institute","371 Tecumseh Ave E","London","Ontario","Canada","N6C 1T4"
"on-public:B66184:900494","Longfields Davidson Heights Secondary School","149 Berrigan Dr","Nepean","Ontario","Canada","K2J 5C6"
"on-public:B66044:904503","Lord Dorchester Secondary School","61 Queen St","Dorchester","Ontario","Canada","N0L 1G2"
"on-public:B67059:728055","Loretto Abbey Catholic Secondary School","101 Mason Blvd","Toronto","Ontario","Canada","M5M 3E2"
"on-public:B67059:728063","Loretto College School","151 Rosemount Ave","Toronto","Ontario","Canada","M6H 2N1"
"on-public:B66125:924008","Lorne Park Secondary School","1324 Lorne Park Rd","Mississauga","Ontario","Canada","L5H 3B1"
"on-public:B66125:904203","Louise Arbour Secondary School","365 Father Tobin Road","Brampton","Ontario","Canada","L6R 0R4"
"on-public:B66206:924130","Loyalist Collegiate and Vocational Institute","153 Van Order Dr","Kingston","Ontario","Canada","K7M 1B9"
"on-public:B67083:798118","Loyola Catholic Secondary School","4010 SladeView Cres","Mississauga","Ontario","Canada","L5L 6B1"
"on-public:B66133:924393","M M Robinson High School","2425 Upper Middle Rd","Burlington","Ontario","Canada","L7P 3N9"
"on-public:B66214:904767","Mackenzie Community School - Secondary School","87 Brockhouse Way","Deep River","Ontario","Canada","K0J 1P0"
"on-public:B66214:924431","Madawaska Valley District School - Secondary District High School","341 John St RR#1","Barry's Bay","Ontario","Canada","K0J 1B0"
"on-public:B67059:729019","Madonna Catholic Secondary School","20 Dubray Ave","Toronto","Ontario","Canada","M3K 1V5"
"on-public:B66052:924520","Malvern Collegiate Institute","55 Malvern Ave","Toronto","Ontario","Canada","M4E 3E4"
"on-public:B28029:924679","Manitoulin Secondary School","PO Box Box 307, 107 Bay St","M'Chigeeng","Ontario","Canada","P0P 1G0"
"on-public:B28070:924652","Manitouwadge High School","200 Manitou Rd W","Manitouwadge","Ontario","Canada","P0T 2C0"
"on-public:B66095:951714","Maple High School","50 Springside Rd","Maple","Ontario","Canada","L6A 2W5"
"on-public:B66109:956413","Maple Ridge Secondary School","225 Prince William Way","Barrie","Ontario","Canada","L4N 0E5"
"on-public:B66184:906059","Maplewood Secondary School","700 Cope Drive","Stittsville","Ontario","Canada","K2S 2P8"
"on-public:B28070:924784","Marathon High School","PO Box Postal Bag H, 14 Hemlo Dr","Marathon","Ontario","Canada","P0T 2E0"
"on-public:B66052:933198","Marc Garneau Collegiate Institute","135 Overlea Blvd","Toronto","Ontario","Canada","M3C 1B3"
"on-public:B66095:924911","Markham District High School","89 Church St","Markham","Ontario","Canada","L3P 2M3"
"on-public:B66095:924849","Markville Secondary School","1000 Carlton Rd","Markham","Ontario","Canada","L3P 7P5"
"on-public:B67059:730653","Marshall McLuhan Catholic Secondary School","1107 Avenue Rd","Toronto","Ontario","Canada","M5N 3B1"
"on-public:B66052:925136","Martingrove Collegiate Institute","50 Winterton Dr","Etobicoke","Ontario","Canada","M9B 3G7"
"on-public:B67059:730882","Mary Ward Catholic Secondary School","3200 Kennedy Rd","Toronto","Ontario","Canada","M1V 3S8"
"on-public:B29033:730963","Marymount Academy Catholic School","165 D'Youville Street","Sudbury","Ontario","Canada","P3C 5E7"
"on-public:B66060:932345","Maxwell Heights Secondary School","1100 Coldstream Drive","Oshawa","Ontario","Canada","L1K 0N1"
"on-public:B66125:925349","Mayfield Secondary School","5000 Mayfield Road","Caledon","Ontario","Canada","L7C 0Z5"
"on-public:B66168:898007","McKinnon Park Secondary School","91 Haddington St","Caledonia","Ontario","Canada","N3W 2H2"
"on-public:B66125:925551","Meadowvale Secondary School","6700 Edenwood Dr","Mississauga","Ontario","Canada","L5N 3B2"
"on-public:B66044:925560","Medway High School","14405 Medway Rd","Arva","Ontario","Canada","N0M 1C0"
"on-public:B66184:925691","Merivale High School","1755 Merivale Rd","Nepean","Ontario","Canada","K2G 1E2"
"on-public:B67059:731820","Michael Power/St Joseph High School","105 Eringate Dr","Toronto","Ontario","Canada","M9C 3Z7"
"on-public:B28010:926086","Michipicoten High School","86 Magpie Rd","Wawa","Ontario","Canada","P0S 1K0"
"on-public:B66095:926140","Middlefield Collegiate Institute","525 Highglen Ave","Markham","Ontario","Canada","L3S 3L5"
"on-public:B66095:926817","Milliken Mills High School","7522 Kennedy Rd","Unionville","Ontario","Canada","L3R 9S5"
"on-public:B66133:926736","Milton District High School","396 Williams Ave","Milton","Ontario","Canada","L9T 2G4"
"on-public:B66125:925535","Mississauga Secondary School","550 Courtneypark Dr. West","Mississauga","Ontario","Canada","L5W 1L9"
"on-public:B66010:927120","Mitchell District High School","95 Frances St RR 5","Mitchell","Ontario","Canada","N0K 1N0"
"on-public:B66052:927384","Monarch Park Collegiate Institute","1 Hanson St","Toronto","Ontario","Canada","M4J 1G6"
"on-public:B67148:732320","Monsignor Doyle Catholic Secondary School","185 Myers Rd","Cambridge","Ontario","Canada","N1R 7H2"
"on-public:B67105:735060","Monsignor John Pereyma Catholic Secondary School","316 Conant St","Oshawa","Ontario","Canada","L1H 3S6"
"on-public:B67105:741310","Monsignor Paul Dwyer Catholic High School","700 Stevenson Rd N","Oshawa","Ontario","Canada","L1J 5P5"
"on-public:B67059:732443","Monsignor Percy Johnson Catholic High School","2170 Kipling Ave","Toronto","Ontario","Canada","M9W 4K9"
"on-public:B66044:927430","Montcalm Secondary School","1350 Highbury Ave N","London","Ontario","Canada","N5Y 1B5"
"on-public:B67032:733032","Mother Teresa Catholic Secondary School","1065 Sunningdale Rd E","London","Ontario","Canada","N5X 4B1"
"on-public:B67059:680354","Msgr Fraser College (Isabella Campus)","146 Isabella St","Toronto","Ontario","Canada","M4Y 1P6"
"on-public:B67059:685100","Msgr Fraser-Midland","2900 Midland Ave","Toronto","Ontario","Canada","M1S 3K8"
"on-public:B66109:927724","Nantyr Shores Secondary School","1146 Anna Maria Ave","Innisfil","Ontario","Canada","L9S 4X5"
"on-public:B66206:927902","Napanee District Secondary School","245 Belleville Rd","Napanee","Ontario","Canada","K7R 3M7"
"on-public:B66052:927708","Native Learning Centre","83 Alexander St","Toronto","Ontario","Canada","M4Y 1B7"
"on-public:B66052:915166","Native Learning Centre East","145 Guildwood Parkway","Scarborough","Ontario","Canada","M1E 1P5"
"on-public:B67059:734080","Neil McNeil High School","127 Victoria Park Ave","Toronto","Ontario","Canada","M4E 3S2"
"on-public:B66133:928160","Nelson High School","4181 New St","Burlington","Ontario","Canada","L7L 1T3"
"on-public:B66184:928291","Nepean High School","574 Broadview Ave","Ottawa","Ontario","Canada","K2A 3V8"
"on-public:B66095:928682","Newmarket High School","505 Pickering Cres","Newmarket","Ontario","Canada","L3Y 8H1"
"on-public:B66052:928810","Newtonbrook Secondary School","155 Hilda Ave","Toronto","Ontario","Canada","M2M 1V6"
"on-public:B67202:835099","Nicholson Catholic College","301 Church St","Belleville","Ontario","Canada","K8N 3C7"
"on-public:B28070:929336","Nipigon Red Rock District High School","PO Box Postal Bag 2, 20 Frost St","Red Rock","Ontario","Canada","P0T 2P0"
"on-public:B66141:894432","Nora Frances Henderson","1770 Upper Sherman Avenue","Hamilton","Ontario","Canada","L8W 0C5"
"on-public:B66206:890596","North Addington Education Centre","14196 Highway 41","Cloyne","Ontario","Canada","K0H 1K0"
"on-public:B66052:929468","North Albion Collegiate Institute","2580 Kipling Ave","Toronto","Ontario","Canada","M9V 3B2"
"on-public:B66192:929590","North Dundas District High School","12835 #43 County Road RR 3","Chesterville","Ontario","Canada","K0C 1H0"
"on-public:B66052:966722","North East Secondary Alternative School","2900 Don Mills Rd","Toronto","Ontario","Canada","M2J 3B6"
"on-public:B66192:929859","North Grenville District High School","2605 Concession Rd","Kemptville","Ontario","Canada","K0G 1J0"
"on-public:B66222:929980","North Hastings High School","14 Monck St","Bancroft","Ontario","Canada","K0L 1C0"
"on-public:B66036:910228","North Lambton Secondary School","15-19 George St","Forest","Ontario","Canada","N0N 1J0"
"on-public:B66044:930113","North Middlesex District High School","100 Main St","Parkhill","Ontario","Canada","N0M 2K0"
"on-public:B66125:930660","North Park Secondary School","10 North Park Dr","Brampton","Ontario","Canada","L6S 3M1"
"on-public:B28010:891150","North Shore Adolescent Education School","303 Mississauga Ave","Elliot Lake","Ontario","Canada","P5A 1E8"
"on-public:B66028:916422","North Star High School","316 Simcoe Street","Amherstburg","Ontario","Canada","N9V 1N1"
"on-public:B66052:930504","North Toronto Collegiate Institute","17 Broadway Ave","Toronto","Ontario","Canada","M4P 1T7"
"on-public:B66052:932812","North West Secondary Alternative School","425 Patricia Avenue","NORTH YORK","Ontario","Canada","M2R 2N1"
"on-public:B28053:892939","Northern Lakes High School","324 Mercury Ave","Atikokan","Ontario","Canada","P0T 1C0"
"on-public:B15148:918598","Northern Lights Secondary School","1 Keewatin Dr","Moosonee","Ontario","Canada","P0L 1Y0"
"on-public:B28037:946109","Northern Secondary School","175 Ethel St","Sturgeon Falls","Ontario","Canada","P2B 2Z8"
"on-public:B66052:930768","Northern Secondary School","851 Mount Pleasant Rd","Toronto","Ontario","Canada","M4P 2L5"
"on-public:B66052:931020","Northview Heights Secondary School","550 Finch Ave W","Toronto","Ontario","Canada","M2R 1N6"
"on-public:B66117:931284","Norwell District Secondary School","135 Cumberland St","Palmerston","Ontario","Canada","N0G 2P0"
"on-public:B66079:931543","Norwood District High School","PO Box Box 70, 44 Elm St","Norwood","Ontario","Canada","K0L 2V0"
"on-public:B67172:736457","Notre Dame Catholic High School","157 McKenzie St","Carleton Place","Ontario","Canada","K7C 4P2"
"on-public:B67059:738115","Notre Dame Catholic High School","12 Malvern Ave","Toronto","Ontario","Canada","M4E 3E1"
"on-public:B67105:738050","Notre Dame Catholic Secondary School","1375 Harwood Ave N","Ajax","Ontario","Canada","L1T 4G8"
"on-public:B67083:690694","Notre Dame Catholic Secondary School","2 Notre Dame Ave","Brampton","Ontario","Canada","L6Z 4L5"
"on-public:B67113:738271","Notre Dame Catholic Secondary School","2333 Headon Forest Dr","Burlington","Ontario","Canada","L7M 3X6"
"on-public:B67156:740195","Notre Dame College School","64 Smith St","Welland","Ontario","Canada","L3C 4H4"
"on-public:B67180:809020","Notre Dame High School","710 Broadview Ave","Ottawa","Ontario","Canada","K2A 2M2"
"on-public:B66109:902636","Nottawasaga Pines Secondary School","8505 County Road 10","Angus","Ontario","Canada","L0M 1B1"
"on-public:B29009:740454","O'Gorman High School","150 George Avenue","Timmins","Ontario","Canada","P4N 4M1"
"on-public:B66044:931934","Oakridge Secondary School","1040 Oxford St W","London","Ontario","Canada","N6H 1V4"
"on-public:B66133:932060","Oakville Trafalgar High School","1460 Devon Rd","Oakville","Ontario","Canada","L6J 3L6"
"on-public:B66052:932191","Oakwood Collegiate Institute","991 St Clair Ave W","Toronto","Ontario","Canada","M6E 1A3"
"on-public:B66052:932116","Oasis Alternative Secondary School","Suite 3rd Floor, 20 Brant St","Toronto","Ontario","Canada","M5V 2M1"
"on-public:B67180:700090","OCSB Achievement Centre","570 West Hunt Club Rd","Nepean","Ontario","Canada","K2G 3R4"
"on-public:B66214:932434","Opeongo High School","1990 Cobden Rd RR 1","Douglas","Ontario","Canada","K0J 1S0"
"on-public:B66117:932450","Orangeville District Secondary School","22 Faulkner St","Orangeville","Ontario","Canada","L9W 2G7"
"on-public:B66141:932507","Orchard Park Secondary School","200 DeWitt Road","Stoney Creek","Ontario","Canada","L8E 4M5"
"on-public:B66109:968729","Orillia Secondary School","250 Collegiate Drive","Orillia","Ontario","Canada","L3V 7S5"
"on-public:B66184:932710","Osgoode Township High School","2800 8th Line Rd","Metcalfe","Ontario","Canada","K0A 2P0"
"on-public:B67130:745529","Our Lady of Lourdes Catholic School","54 Westmount Rd","Guelph","Ontario","Canada","N1H 5H7"
"on-public:B67083:742333","Our Lady of Mount Carmel Secondary School","3700 Trelawny Circle","Mississauga","Ontario","Canada","L5N 5J7"
"on-public:B67091:723630","Our Lady of the Bay Catholic High School","160 Collins St","Collingwood","Ontario","Canada","L9Y 4R1"
"on-public:B67075:748528","Our Lady of the Lake Catholic Academy High School","185 Glenwoods Ave","Keswick","Ontario","Canada","L4P 2W6"
"on-public:B67075:874888","Our Lady Queen of the World CA High School","10475 Bayview Ave","Richmond Hill","Ontario","Canada","L4C 3P2"
"on-public:B66001:951692","Owen Sound District Secondary School Secondary School","750 9th St W","Owen Sound","Ontario","Canada","N4K 3P6"
"on-public:B66168:933490","Paris District High School","231 Grand River St N","Paris","Ontario","Canada","N3L 2N6"
"on-public:B66052:933759","Parkdale Collegiate Institute","209 Jameson Ave","Toronto","Ontario","Canada","M6K 2Y3"
"on-public:B66044:944939","Parkside Collegiate Institute","241 Sunset Dr","St Thomas","Ontario","Canada","N5R 3C2"
"on-public:B66052:939480","Parkview Alternative School","Suite 2nd Flr, Rm 203, 1641 Pharmacy Avenue","Scarborough","Ontario","Canada","M1R 2L2"
"on-public:B28037:934275","Parry Sound High School","111 Isabella St","Parry Sound","Ontario","Canada","P2A 1N2"
"on-public:B67091:751103","Patrick Fogarty Catholic Secondary School","15 Commerce Road","Orillia","Ontario","Canada","L3V 0Z2"
"on-public:B66168:934402","Pauline Johnson Collegiate and Vocational School","627 Colborne St E","Brantford","Ontario","Canada","N3S 3M8"
"on-public:B66125:943381","Peel Alternative North ISR","315 BARTLEY BULL PKY","BRAMPTON","Ontario","Canada","L6W 2L4"
"on-public:B66125:958431","Peel Alternative South ISR","1500 Ogden Avenue","MISSISSAUGA","Ontario","Canada","L5E 2H8"
"on-public:B66001:953253","Peninsula Shores District School","PO Box Box 580, 115 George St","Wiarton","Ontario","Canada","N0H 2T0"
"on-public:B66192:935050","Perth and District Collegiate Institute","13 Victoria St","Perth","Ontario","Canada","K7H 2H3"
"on-public:B66079:935182","Peterborough Collegiate and Vocational School","201 McDonnel St","Peterborough","Ontario","Canada","K9H 2W1"
"on-public:B67083:751430","Philip Pocock Catholic Secondary School","4555 Tomken Rd","Mississauga","Ontario","Canada","L4W 1J9"
"on-public:B66060:935310","Pickering High School","180 Church St N","Ajax","Ontario","Canada","L1T 2W7"
"on-public:B66095:894672","Pierre Elliott Trudeau High School","90 Bur Oak Ave","Markham","Ontario","Canada","L6C 2E6"
"on-public:B66060:935360","Pine Ridge Secondary School","2155 Liverpool Rd N","Pickering","Ontario","Canada","L1X 1V4"
"on-public:B66150:935700","Port Colborne High School","211 Elgin St","Port Colborne","Ontario","Canada","L3K 3K4"
"on-public:B66125:935832","Port Credit Secondary School","70 Mineola Rd E","Mississauga","Ontario","Canada","L5G 2E5"
"on-public:B66079:936090","Port Hope High School","130 Highland Dr","Port Hope","Ontario","Canada","L1A 2A3"
"on-public:B66060:936227","Port Perry High School","160 ROSA","PORT PERRY","Ontario","Canada","L9L 1L7"
"on-public:B66176:936480","Preston High School","550 Rose St","Cambridge","Ontario","Canada","N3H 2E6"
"on-public:B66222:936618","Prince Edward Collegiate Institute","41 Barker Street","Picton","Ontario","Canada","K0K 2T0"
"on-public:B66052:937266","R H King Academy","3800 St Clair Ave E","Toronto","Ontario","Canada","M1M 1V3"
"on-public:B66060:937525","R S Mclaughlin Collegiate and Vocational Institute","570 Stevenson Rd N","Oshawa","Ontario","Canada","L1J 5P1"
"on-public:B28053:937657","Rainy River High School","1 Mill Ave","Rainy River","Ontario","Canada","P0W 1L0"
"on-public:B28045:937789","Red Lake District High School","60-C Highway 105","Red Lake","Ontario","Canada","P0V 2M0"
"on-public:B67032:752827","Regina Mundi College","5250 Wellington Rd South","London","Ontario","Canada","N6E 3X8"
"on-public:B67202:752932","Regiopolis/Notre-Dame Catholic High School","130 Russell St","Kingston","Ontario","Canada","K7K 2E9"
"on-public:B66214:937916","Renfrew Collegiate Institute","184 Bonnechere St","Renfrew","Ontario","Canada","K7V 1Z5"
"on-public:B67148:753009","Resurrection Catholic Secondary School","455 University Ave W","Kitchener","Ontario","Canada","N2N 3B9"
"on-public:B66095:964809","Richmond Green Secondary School","1 William F. Bell Parkway","Richmond Hill","Ontario","Canada","L4S 2T9"
"on-public:B66095:938106","Richmond Hill High School","201 Yorkland St","Richmond Hill","Ontario","Canada","L4S 1A2"
"on-public:B66052:938173","Richview Collegiate Institute","1738 Islington Ave","Etobicoke","Ontario","Canada","M9A 3N2"
"on-public:B66125:938009","Rick Hansen Secondary School","1150 Dream Crest Road","Mississauga","Ontario","Canada","L5V 1N6"
"on-public:B66192:938300","Rideau District High School","251 Main St RR2","Elgin","Ontario","Canada","K0G 1E0"
"on-public:B66184:938564","Ridgemont High School","2597 Alta Vista Dr","Ottawa","Ontario","Canada","K1V 7T3"
"on-public:B66036:938696","Ridgetown District High School","9 Harold St N","Ridgetown","Ontario","Canada","N0P 2C0"
"on-public:B66052:939080","Riverdale Collegiate Institute","1094 Gerrard St E","Toronto","Ontario","Canada","M4M 2A1"
"on-public:B66028:939218","Riverside Secondary School","8465 Jerome St","Windsor","Ontario","Canada","N8S 1W8"
"on-public:B66184:897785","Riverside South Secondary School","702 Earl Armstrong Road","Ottawa","Ontario","Canada","K1X 1H7"
"on-public:B67083:753211","Robert F Hall Catholic Secondary School","6500 Old Church Rd","Caledon East","Ontario","Canada","L7C 0H3"
"on-public:B66192:935425","Rockland District High School","1004 St Joseph Street","Rockland","Ontario","Canada","K4K 1P6"
"on-public:B28002:943509","Roland Michener Secondary School","155 Legion Dr","South Porcupine","Ontario","Canada","P0N 1H0"
"on-public:B66052:898910","Rosedale Heights School of the Arts","711 Bloor St E","Toronto","Ontario","Canada","M4W 1J4"
"on-public:B66052:939609","Runnymede Collegiate Institute","569 Jane St","Toronto","Ontario","Canada","M6S 4A3"
"on-public:B66192:937673","Russell High School","982 North Russell Road","Russell","Ontario","Canada","K4R 1C8"
"on-public:B67318:683922","ÉSAC Mère-Teresa","50 Lisgar cour","Hamilton","Ontario","Canada","L8T 4Y4"
"on-public:B67075:756709","Sacred Heart Catholic High School","908 Lemar Rd","Newmarket","Ontario","Canada","L3Y 1R9"
"on-public:B67180:759970","Sacred Heart High School","5870 Abbott St","Stittsville","Ontario","Canada","K2S 1X4"
"on-public:B67008:759430","Sacred Heart High School","450 Robinson St","Walkerton","Ontario","Canada","N0G 2V0"
"on-public:B67156:790818","Saint Francis Catholic Secondary School","541 Lake St","St Catharines","Ontario","Canada","L2N 4H7"
"on-public:B67156:773662","Saint Michael Catholic High School","8699 McLeod Rd","Niagara Falls","Ontario","Canada","L2H 0Z2"
"on-public:B67156:761710","Saint Paul Catholic High School","3834 Windermere Rd","Niagara Falls","Ontario","Canada","L2J 2Y5"
"on-public:B66141:939730","Saltfleet High School","108 Highland Road West","Stoney Creek","Ontario","Canada","L8J 2T2"
"on-public:B66125:939596","Sandalwood Heights Secondary School","2671 Sandalwood Pkwy E","Brampton","Ontario","Canada","L6R 0K7"
"on-public:B66028:939765","Sandwich Secondary School","7050 Malden Rd","LaSalle","Ontario","Canada","N9J 2T5"
"on-public:B66052:949744","SATEC @ W A Porter Collegiate Institute","40 Fairfax Cres","Scarborough","Ontario","Canada","M1L 1Z9"
"on-public:B66001:940127","Saugeen District Secondary School","780 Gustavus St","Port Elgin","Ontario","Canada","N0H 2C4"
"on-public:B66044:940437","Saunders Secondary School","941 Viscount Rd","London","Ontario","Canada","N6K 1H5"
"on-public:B67318:867769","ÉSC de l'Ascension - Vaughan","200 Aberdeen Avenue","Woodbridge","Ontario","Canada","L4L 1C4"
"on-public:B67318:733458","ÉSC Monseigneur-de-Charbonnel","110 Drewry avenue","Toronto","Ontario","Canada","M2M 1C8"
"on-public:B67318:780213","ÉSC Monseigneur-Jamot","2350 Woodglade Boulevard","Peterborough","Ontario","Canada","K9K 2L1"
"on-public:B67318:740390","ÉSC Nouvelle-Alliance","249 Anne nord rue","Barrie","Ontario","Canada","L4N 0B5"
"on-public:B67318:846041","ÉSC Père-Philippe-Lamarche","2850 Eglinton E Avenue","Toronto","Ontario","Canada","M1J 2C8"
"on-public:B67318:751073","ÉSC Père-René-de-Galinée","450 Maple Grove chemin","Cambridge","Ontario","Canada","N3H 4R7"
"on-public:B67318:854087","ÉSC Pape-François","276 Sunset Blvd","Stouffville","Ontario","Canada","L4A 3R1"
"on-public:B67318:705357","ÉSC Renaissance","700 Bloomington ouest chemin","Aurora","Ontario","Canada","L4G 0E1"
"on-public:B67318:706477","ÉSC Saint-Charles-Garnier","4101 Baldwin sud rue","Whitby","Ontario","Canada","L1R 2W6"
"on-public:B67318:691950","ÉSC Saint-Frère-André","330 LANSDOWNE AVE","TORONTO","Ontario","Canada","M6H 3Y1"
"on-public:B67318:782017","ÉSC Saint-Jean-de-Brébeuf","620 River chemin","Welland","Ontario","Canada","L3B 5N6"
"on-public:B67318:790001","ÉSC Sainte-Famille","1780 Meadowvale boulevard","Mississauga","Ontario","Canada","L5N 7K8"
"on-public:B67318:865368","ÉSC Sainte-Trinité","2600 Grand Oak Trail","Oakville","Ontario","Canada","L6M 0R4"
"on-public:B66052:940445","Scarborough Centre for Alternative Studi","720 Midland Avenue","Toronto","Ontario","Canada","M1K 4C9"
"on-public:B66052:940623","School of Experiential Education","40 McArthur St","Toronto","Ontario","Canada","M9P 3M7"
"on-public:B66192:918415","Seaway District High School","2 Beach Avenue","Iroquois","Ontario","Canada","K0E 1K0"
"on-public:B66052:936669","SEED Alternative School","885 Dundas St E","Toronto","Ontario","Canada","M4M 1R4"
"on-public:B67059:763772","Senator O'Connor College School","60 Rowena Drive","Toronto","Ontario","Canada","M3A 3R2"
"on-public:B66141:941328","Sherwood Secondary School","25 High Street","Hamilton","Ontario","Canada","L8T 3Z4"
"on-public:B66052:941425","Silverthorn Collegiate Institute","291 Mill Rd","Etobicoke","Ontario","Canada","M9C 1Y5"
"on-public:B66168:941557","Simcoe Composite School","40 Wilson Drive","Simcoe","Ontario","Canada","N3Y 2E5"
"on-public:B66060:941603","Sinclair Secondary School","380 Taunton Rd E","Whitby","Ontario","Canada","L1R 2K5"
"on-public:B28045:936871","Sioux North High School","86 Third Ave","Sioux Lookout","Ontario","Canada","P8T 1A9"
"on-public:B66141:941719","Sir Allan MacNab Secondary School","145 Magnolia Drive","Hamilton","Ontario","Canada","L9C 5P4"
"on-public:B66044:941743","Sir Frederick Banting Secondary School","125 Sherwood Forest Sq","London","Ontario","Canada","N6G 2C3"
"on-public:B66052:941948","Sir John A Macdonald Collegiate Institute","2300 Pharmacy Ave","Toronto","Ontario","Canada","M1W 1H8"
"on-public:B66052:941972","Sir Oliver Mowat Collegiate Institute","5400 Lawrence Ave E","Toronto","Ontario","Canada","M1C 2C6"
"on-public:B66184:942014","Sir Robert Borden High School","131 Greenbank Rd","Nepean","Ontario","Canada","K2H 8R1"
"on-public:B66052:942200","Sir Wilfrid Laurier Collegiate Institute","145 Guildwood Pkwy","Toronto","Ontario","Canada","M1E 1P5"
"on-public:B66044:942162","Sir Wilfrid Laurier Secondary School","450 Millbank Dr","London","Ontario","Canada","N6C 4W7"
"on-public:B66184:942332","Sir Wilfrid Laurier Secondary School","1515 Tenth Line Rd","Orleans","Ontario","Canada","K1E 3E8"
"on-public:B66095:942340","Sir William Mulock Secondary School","705 Columbus Way","Newmarket","Ontario","Canada","L3X 2M7"
"on-public:B66141:942448","Sir Winston Churchill Secondary School","1715 Main Street East","Hamilton","Ontario","Canada","L8H 1E3"
"on-public:B66150:942464","Sir Winston Churchill Secondary School","101 Glen Morris Dr","St Catharines","Ontario","Canada","L2T 2N1"
"on-public:B66192:942596","Smiths Falls District Collegiate Institute","299 Percy Street","Smiths Falls","Ontario","Canada","K7A 5M2"
"on-public:B66184:942855","South Carleton High School","3673 McBean St","Richmond","Ontario","Canada","K0A 2Z0"
"on-public:B66052:960413","South East Secondary Alternative School","720 Midland Avenue","Toronto","Ontario","Canada","M1K 4C9"
"on-public:B66192:942987","South Grenville District High School","1000 Edward Street North","Prescott","Ontario","Canada","K0E 1T0"
"on-public:B66010:943118","South Huron District High School","92 Gidley St E","Exeter","Ontario","Canada","N0M 1S6"
"on-public:B66176:943894","Southwood Secondary School","30 Southwood Dr","Cambridge","Ontario","Canada","N1S 4K3"
"on-public:B67083:767255","St Aloysius Gonzaga Secondary School","2800 Erin Centre Blvd","Mississauga","Ontario","Canada","L5M 6R5"
"on-public:B67032:763602","St. Andre Bessette Secondary School","2727 Tokala Trail","London","Ontario","Canada","N6G 0L8"
"on-public:B67016:771686","St Anne's Catholic Secondary School","353 Ontario Street","Clinton","Ontario","Canada","N0M 1L0"
"on-public:B67024:771520","St Anne Secondary School","1200 Oakwood Dr RR #3","Belle River","Ontario","Canada","N0R 1A0"
"on-public:B67075:765708","St Augustine Catholic High School","2188 Rodick Rd","Markham","Ontario","Canada","L6C 1S3"
"on-public:B67083:775606","St Augustine Secondary School","27 Drinkwater Rd","Brampton","Ontario","Canada","L6Y 4T6"
"on-public:B67059:776360","St Basil-the-Great College School","20 Starview Lane","Toronto","Ontario","Canada","M9M 3B2"
"on-public:B67148:776726","St Benedict Catholic Secondary School","50 Saginaw Pkwy","Cambridge","Ontario","Canada","N1R 5W1"
"on-public:B29033:777196","St Benedict Catholic Secondary School","2993 Algonquin Road","Sudbury","Ontario","Canada","P3E 6K2"
"on-public:B67075:691356","St Brother André Catholic High School","6160 16th Ave E","Markham","Ontario","Canada","L3P 3K8"
"on-public:B66150:944157","St Catharines Collegiate Institute and Vocational School","34 Catherine St","St Catharines","Ontario","Canada","L2R 5E7"
"on-public:B29033:783358","St Charles College","1940 Hawthorne Drive","Sudbury","Ontario","Canada","P3A 1M8"
"on-public:B67148:786217","St David Catholic Secondary School","4 High St","Waterloo","Ontario","Canada","N2L 3X5"
"on-public:B67091:786691","St Dominic Catholic Secondary School","955 Cedar Lane","Bracebridge","Ontario","Canada","P1L 0A1"
"on-public:B67083:788511","St Edmund Campion Secondary School","275 Brisdale Drive","Brampton","Ontario","Canada","L7A 3C7"
"on-public:B67075:788112","St Elizabeth Catholic High School","525 New Westminster Dr","Thornhill","Ontario","Canada","L4J 7X3"
"on-public:B67180:843510","St. Francis Xavier (9-12) Catholic School","3740 Spratt Rd","Gloucester","Ontario","Canada","K1V 2M1"
"on-public:B67172:751502","St Francis Xavier Catholic High School","1235 Russell Rd","Hammond","Ontario","Canada","K0A 2A0"
"on-public:B67113:696392","St. Francis Xavier Catholic Secondary School","1145 Bronte Street South","Milton","Ontario","Canada","L9T 8B4"
"on-public:B67083:792594","St Francis Xavier Secondary School","50 Bristol Rd W","Mississauga","Ontario","Canada","L5R 3K3"
"on-public:B29068:798193","St Ignatius High School","285 Gibson Street","Thunder Bay","Ontario","Canada","P7A 2J6"
"on-public:B67113:798010","St. Ignatius of Loyola Catholic Secondary School","1550 Nottinghill Gate","Oakville","Ontario","Canada","L6M 1X7"
"on-public:B67172:745698","St. James Catholic Education Centre High School","5 Catherine Street","Smiths Falls","Ontario","Canada","K7A 3Z9"
"on-public:B67130:798690","St James Catholic School","57 Victoria Rd N","Guelph","Ontario","Canada","N1E 5G9"
"on-public:B67075:799912","St Jean de Brebeuf Catholic High School","2 Davos Rd","Woodbridge","Ontario","Canada","L4H 2Y1"
"on-public:B67121:800430","St. Jean de Brebeuf Catholic Secondary School","200 Acadia Dr","Hamilton","Ontario","Canada","L8W 1B8"
"on-public:B67059:723428","St Joan of Arc Catholic Academy","959 Midland Ave","Toronto","Ontario","Canada","M1K 4G4"
"on-public:B67075:801259","St Joan of Arc Catholic High School","1 St Joan of Arc Ave","Maple","Ontario","Canada","L6A 1W9"
"on-public:B67083:696056","St. Joan of Arc Catholic Secondary School","3801 Thomas St","Mississauga","Ontario","Canada","L5M 7G2"
"on-public:B67091:801275","St Joan of Arc High School","460 Mapleton Ave","Barrie","Ontario","Canada","L4N 9C2"
"on-public:B67172:804800","St John Catholic High School","2066 Scotch Line Rd RR 3","Perth Road","Ontario","Canada","K7H 3C5"
"on-public:B67059:694193","St John Henry Newman Catholic High School","100 BRIMLEY RD","SCARBOROUGH","Ontario","Canada","M1M 3X4"
"on-public:B67121:694134","St. John Henry Newman Catholic Secondary School","127 Gray Rd","Stoney Creek","Ontario","Canada","L8G 3V3"
"on-public:B67059:751537","St John Paul II Catholic Secondary School","685 Military Trail","Toronto","Ontario","Canada","M1E 4P6"
"on-public:B67164:751898","St John's College","80 Paris Rd","Brantford","Ontario","Canada","N3R 1H9"
"on-public:B67180:764914","St Joseph High School","3333 Greenbank Rd","Nepean","Ontario","Canada","K2J 4J1"
"on-public:B67059:815160","St Joseph Morrow Park Catholic Secondary School","3338 Bayview Ave","Toronto","Ontario","Canada","M2M 3R9"
"on-public:B67059:814954","St Joseph's College School","74 Wellesley St W","Toronto","Ontario","Canada","M5S 1C4"
"on-public:B67199:814962","St Joseph's High School","835 First St","Renfrew","Ontario","Canada","K7V 4E1"
"on-public:B67032:810916","St Joseph's High School","100 Bill Martyn Pkwy RR 4","St. Thomas","Ontario","Canada","N5R 6A7"
"on-public:B67024:736163","St Joseph's High School","2425 Clover Ave","Windsor","Ontario","Canada","N8P 2A3"
"on-public:B67172:806277","St Joseph's Secondary School","1500 A Cumberland St.","Cornwall","Ontario","Canada","K6J 5V9"
"on-public:B67091:813389","St Joseph's Separate School","243 Cundles Rd E","Barrie","Ontario","Canada","L4M 6L1"
"on-public:B29017:763659","St Joseph-Scollard Hall Secondary School","675 O'Brien St","North Bay","Ontario","Canada","P1B 9R3"
"on-public:B67083:806919","St Joseph Secondary School","5555 Creditview Rd","Mississauga","Ontario","Canada","L5V 2B9"
"on-public:B67113:772099","St. Kateri Tekakwitha Catholic Secondary Catholic School","1125 Kennedy Circle","Milton","Ontario","Canada","L9E 1B4"
"on-public:B66192:944670","St Lawrence Secondary School","1450 Second Street East","Cornwall","Ontario","Canada","K6H 5Z8"
"on-public:B67172:803065","St. Luke Catholic High School","5 Catherine Street","Smiths Falls","Ontario","Canada","K7A 3Z9"
"on-public:B67075:820733","St Luke Learning Centre","301 Barrhill Road","Maple","Ontario","Canada","L6A 1J5"
"on-public:B67083:821381","St Marcellinus Secondary School","730 Courtneypark Dr W","Mississauga","Ontario","Canada","L5W 1L9"
"on-public:B67083:822655","St Marguerite d'Youville Secondary School","10815 Dixie Rd","Brampton","Ontario","Canada","L6R 2W5"
"on-public:B67180:864331","St Mark High School","1040 Dozois Rd 1","Manotick","Ontario","Canada","K4M 1B2"
"on-public:B67083:823953","St Martin Secondary School","2470 Rosemary Dr","Mississauga","Ontario","Canada","L5C 1X2"
"on-public:B67059:689831","St Mary Catholic Academy","66 Dufferin Park Ave","Toronto","Ontario","Canada","M6H 1J6"
"on-public:B67067:830410","St. Mary Catholic Secondary School","1050 Birchwood Trail","Cobourg","Ontario","Canada","K9A 5S9"
"on-public:B67121:827401","St. Mary Catholic Secondary School","200 Whitney Ave","Hamilton","Ontario","Canada","L8S 2G7"
"on-public:B67105:826278","St Mary Catholic Secondary School","1918 Whites Rd","Pickering","Ontario","Canada","L1V 1R9"
"on-public:B29025:776076","St Mary's College Separate School","868 Second Line","Sault Ste Marie","Ontario","Canada","P6B 4K4"
"on-public:B67172:824593","St Mary's High School","40 Central Ave","Brockville","Ontario","Canada","K6V 4N5"
"on-public:B67148:832103","St Mary's High School","1500 Block Line Rd","Kitchener","Ontario","Canada","N2C 2S2"
"on-public:B67008:776599","St Mary's High School","555 15th St E","Owen Sound","Ontario","Canada","N4K 1X2"
"on-public:B67032:831190","St Mary's High School","431 Juliana Dr","Woodstock","Ontario","Canada","N4V 1E8"
"on-public:B66010:944807","St Marys D.C. & V. I. High School","338 Elizabeth St","St Marys","Ontario","Canada","N4X 1B6"
"on-public:B67180:704873","St Matthew High School","6550 Bilberry Dr","Orleans","Ontario","Canada","K1C 2S9"
"on-public:B67075:811780","St Maximilian Kolbe High School","278 Wellington Street East","Aurora","Ontario","Canada","L4G 1J5"
"on-public:B67083:864570","St. Michael Catholic Secondary School","9130 Columbia Way","Bolton","Ontario","Canada","L7E 4G6"
"on-public:B67016:832545","St Michael Catholic Secondary School","240 Oakdale Ave","Stratford","Ontario","Canada","N5A 7W2"
"on-public:B67172:832480","St Michael High School","2755 Highway 43","Kemptville","Ontario","Canada","K0G 1J0"
"on-public:B67059:834718","St Michael's Choir (Sr) School","67 Bond St","Toronto","Ontario","Canada","M5B 1X2"
"on-public:B67059:733024","St Mother Teresa Catholic Academy","40 Sewells Rd","Toronto","Ontario","Canada","M1B 3G5"
"on-public:B67180:733288","St. Mother Teresa High School","440 Longfields Dr","Nepean","Ontario","Canada","K2J 4T1"
"on-public:B67059:685550","St Oscar Romero Catholic Secondary School","99 Humber Blvd","Toronto","Ontario","Canada","M6L 2H4"
"on-public:B67083:736228","St. Oscar Romero School","2495 Credit Valley Road","Mississauga","Ontario","Canada","L5M 4G8"
"on-public:B67059:838268","St Patrick Catholic Secondary School","49 Felstead Ave","Toronto","Ontario","Canada","M4J 1G3"
"on-public:B29068:687111","St Patrick High School","621 South Selkirk St","Thunder Bay","Ontario","Canada","P7E 1T9"
"on-public:B67040:836788","St Patrick's Catholic High School","1001 The Rapids Pkwy","Sarnia","Ontario","Canada","N7S 6K2"
"on-public:B67180:816132","St Patrick's High School","2525 Alta Vista Dr","Ottawa","Ontario","Canada","K1V 7T3"
"on-public:B67202:841358","St Paul Catholic Secondary School","15 Tripp Blvd","Trenton","Ontario","Canada","K8V 6M2"
"on-public:B67180:689203","St Paul High School","2675 Draper Ave","Ottawa","Ontario","Canada","K2H 7A1"
"on-public:B67083:841730","St Paul Secondary School","815 Atwater Ave","Mississauga","Ontario","Canada","L5E 1L8"
"on-public:B67067:845361","St. Peter Catholic Secondary School","730 Medical Dr","Peterborough","Ontario","Canada","K9J 8M4"
"on-public:B67180:843296","St Peter High School","750 Charlemagne Blvd","Orleans","Ontario","Canada","K4A 3M4"
"on-public:B67091:844012","St Peter's Secondary School","201 Ashford Dr","Barrie","Ontario","Canada","L4N 6A3"
"on-public:B67180:847313","St Pius X High School","1481 Fisher Ave","Ottawa","Ontario","Canada","K2C 1X4"
"on-public:B67075:849626","St Robert Catholic High School","8101 Leslie St","Thornhill","Ontario","Canada","L3T 7P4"
"on-public:B67083:784979","St. Roch Catholic Secondary School","200 Valleyway Drive","Brampton","Ontario","Canada","L6X 0N3"
"on-public:B67067:851116","St. Stephen Catholic Secondary School","300 Scugog St","Bowmanville","Ontario","Canada","L1C 6Y8"
"on-public:B67202:851752","St Theresa Catholic Secondary School","135 Adam St","Belleville","Ontario","Canada","K8N 5S1"
"on-public:B67075:852546","St Theresa of Lisieux Catholic High School","230 Shaftsbury Avenue","Richmond Hill","Ontario","Canada","L4C 0E8"
"on-public:B67091:852775","St Theresa's Separate School","347 Galloway Blvd","Midland","Ontario","Canada","L4R 5B2"
"on-public:B67172:733067","St. Thomas Aquinas Catholic High School","1211 South Russell Rd 2","Russell","Ontario","Canada","K4R 1E5"
"on-public:B67067:855006","St. Thomas Aquinas Catholic Secondary School","260 Angeline St S RR 2","Lindsay","Ontario","Canada","K9V 0J8"
"on-public:B67113:854212","St. Thomas Aquinas Catholic Secondary School","124 Dorval Dr","Oakville","Ontario","Canada","L6K 2W1"
"on-public:B67091:773050","St Thomas Aquinas Catholic Secondary School","PO Box Box 3000, 2 Nolan Rd","Tottenham","Ontario","Canada","L0G 1W0"
"on-public:B29050:864471","St Thomas Aquinas High School","1 Poirier Dr","Kenora","Ontario","Canada","P9N 4G8"
"on-public:B67083:854530","St Thomas Aquinas Secondary School","25 Corporation Dr","Brampton","Ontario","Canada","L6S 6A2"
"on-public:B67032:854280","St Thomas Aquinas Secondary School","1360 Oxford St W","London","Ontario","Canada","N6H 1W2"
"on-public:B67121:855685","St. Thomas More Catholic Secondary School","1045 Upper Paradise Rd","Hamilton","Ontario","Canada","L9B 2N4"
"on-public:B67024:864170","St Thomas of Villanova Secondary School","2800 North Townline RR 3","LaSalle","Ontario","Canada","N9H 0K3"
"on-public:B66150:945064","Stamford Collegiate","5775 Drummond Rd","Niagara Falls","Ontario","Canada","L2G 4L2"
"on-public:B66109:945196","Stayner Collegiate Institute","7578 Hwy 26 RR 2","Stayner","Ontario","Canada","L0M 1S0"
"on-public:B66052:945250","Stephen Leacock Collegiate Institute","2450 Birchmount Rd","Toronto","Ontario","Canada","M1T 2M5"
"on-public:B66125:962646","Stephen Lewis Secondary School","3675 Thomas Street","Mississauga","Ontario","Canada","L5M 7E6"
"on-public:B66095:945508","Stephen Lewis Secondary School","555 Autumn Hill Blvd","Thornhill","Ontario","Canada","L4J 8X2"
"on-public:B66095:945455","Stouffville District Secondary School","801 Hoover Park Dr","Stouffville","Ontario","Canada","L4A 0A4"
"on-public:B66010:893395","Stratford District Secondary School","428 Forman Ave","Stratford","Ontario","Canada","N5A 6R7"
"on-public:B66044:945846","Strathroy District Collegiate Institute","361 Second St","Strathroy","Ontario","Canada","N7G 4J8"
"on-public:B66125:945978","Streetsville Secondary School","72 Joymar Dr","Mississauga","Ontario","Canada","L5M 1G3"
"on-public:B66052:946192","Subway Academy I","16 Phin Ave","Toronto","Ontario","Canada","M4J 3T2"
"on-public:B28029:941298","Sudbury Secondary School","154 College St","Sudbury","Ontario","Canada","P3C 4Y2"
"on-public:B28061:950848","Superior Collegiate and Vocational Institute","333 High Street N","Thunder Bay","Ontario","Canada","P7A 5S3"
"on-public:B28010:958050","Superior Heights Collegiate and Vocational School","750 north street","Sault Ste. Marie","Ontario","Canada","P6B 2C5"
"on-public:B66095:946362","Sutton District High School","20798 Dalton Rd","Sutton","Ontario","Canada","L0E 1R0"
"on-public:B66206:946494","Sydenham High School","2860 Rutledge Rd","Sydenham","Ontario","Canada","K0H 2T0"
"on-public:B66141:927163","System Alternative Education Sir Isaac Brock Secondary School","225 King William Street","Hamilton","Ontario","Canada","L8R 1B1"
"on-public:B66125:948187","T. L. Kennedy Secondary School","3100 Hurontario St","Mississauga","Ontario","Canada","L5B 1N7"
"on-public:B66192:946648","Tagwi Secondary School","16750 County Road #43 RR 1","Avonmore","Ontario","Canada","K0C 1C0"
"on-public:B66028:902299","Tecumseh Vista Academy- Secondary","11555 Shields St","Tecumseh","Ontario","Canada","N8N 0C1"
"on-public:B66052:947300","The Student School","160 Glendonwynne Road","Toronto","Ontario","Canada","M6P 0A5"
"on-public:B66125:954403","The Woodlands Secondary School","3225 Erindale Station Rd","Mississauga","Ontario","Canada","L5C 1Y5"
"on-public:B66052:947407","Thistletown Collegiate Institute","20 Fordwich Cres","Toronto","Ontario","Canada","M9W 2T4"
"on-public:B66133:947539","Thomas A Blakelock High School","1160 Rebecca St","Oakville","Ontario","Canada","L6L 1Y9"
"on-public:B66079:947563","Thomas A Stewart Secondary School","1009 Armour Rd","Peterborough","Ontario","Canada","K9H 7H2"
"on-public:B67113:771120","Thomas Merton Online Catholic School","225 Morden Road","Oakville","Ontario","Canada","L6K 2S2"
"on-public:B66095:947792","Thornhill Secondary School","167 Dudley Ave","Thornhill","Ontario","Canada","L3T 2E5"
"on-public:B66095:947814","Thornlea Secondary School","8075 Bayview Ave","Thornhill","Ontario","Canada","L3T 4N4"
"on-public:B66150:948055","Thorold Secondary School","50 Ormond St N","Thorold","Ontario","Canada","L2V 1Z1"
"on-public:B66192:948314","Thousand Islands Secondary School","2510 Parkedale Avenue West","Brockville","Ontario","Canada","K6V 3H1"
"on-public:B66036:948446","Tilbury District High School","97 Queen St S","Tilbury","Ontario","Canada","N0P 2L0"
"on-public:B28002:946940","Timiskaming District Secondary School","90 Niven St","New Liskeard","Ontario","Canada","P0J 1P0"
"on-public:B28002:948578","Timmins High and Vocational School","451 Theriault Blvd","Timmins","Ontario","Canada","P4N 8B2"
"on-public:B66095:898285","Tommy Douglas Secondary School","4020 Major Mackenzie Dr","Woodbridge","Ontario","Canada","L4H 4E9"
"on-public:B66222:948705","Trenton High School","15 Fourth Ave","Trenton","Ontario","Canada","K8V 5N4"
"on-public:B66125:918440","Turner Fenton Secondary School","7935 Kennedy Rd S RR 10","Brampton","Ontario","Canada","L6W 0A2"
"on-public:B66109:948870","Twin Lakes Secondary School","381 Birch St","Orillia","Ontario","Canada","L3V 2P5"
"on-public:B66095:949140","Unionville High School","201 Town Centre Blvd","Unionville","Ontario","Canada","L3R 8G5"
"on-public:B66052:949027","Ursula Franklin Academy","146 Glendonwynne Rd","Toronto","Ontario","Canada","M6P 3J7"
"on-public:B67040:864366","Ursuline College Chatham Catholic Secondary School","85 Grand Ave W","Chatham","Ontario","Canada","N7L 1B6"
"on-public:B66060:948969","Uxbridge Secondary School","127 Planks Lane","Uxbridge","Ontario","Canada","L9P 1K5"
"on-public:B66168:949035","Valley Heights Secondary School","Suite Lot 12, PO Box Box 159, 2561 Hwy 59","Langton","Ontario","Canada","N0E 1G0"
"on-public:B66214:902747","Valour JK to 12 School - Secondary School","19 Leeder Lane","Petawawa","Ontario","Canada","K8H 0B8"
"on-public:B66192:949094","Vankleek Hill Collegiate Institute","5814 Highway 34","Vankleek Hill","Ontario","Canada","K0B 1R0"
"on-public:B66052:949353","Victoria Park Collegiate Institute","15 Wallingford Rd","Toronto","Ontario","Canada","M3A 2V1"
"on-public:B66028:949612","Vincent Massey Secondary School","1800 Liberty St","Windsor","Ontario","Canada","N9E 1J2"
"on-public:B28010:895270","W C Eaket Secondary School","147 Woodward Ave","Blind River","Ontario","Canada","P0R 1B0"
"on-public:B66028:950009","W. F. Herman Academy Secondary School","1905 Bernard Rd","Windsor","Ontario","Canada","N8W 4R6"
"on-public:B66001:950262","Walkerton District Community School","PO Box Box 1510, 1320 Yonge St South","Walkerton","Ontario","Canada","N0G 2V0"
"on-public:B66028:950394","Walkerville Collegiate Institute","2100 Richmond St","Windsor","Ontario","Canada","N8Y 1L4"
"on-public:B66036:950521","Wallaceburg District Secondary School","920 Elgin St","Wallaceburg","Ontario","Canada","N8A 3E1"
"on-public:B66141:950653","Waterdown District High School","215 Parkside Drive","Waterdown","Ontario","Canada","L8B 1B9"
"on-public:B66168:950785","Waterford District High School","PO Box Box 370, 227 Main St S","Waterford","Ontario","Canada","N0E 1Y0"
"on-public:B66176:950912","Waterloo Collegiate Institute","300 Hazel St","Waterloo","Ontario","Canada","N2L 3P2"
"on-public:B66176:951048","Waterloo-Oxford District Secondary School","1206 Snyder's Rd. W. RR 2","Baden","Ontario","Canada","N3A 1A4"
"on-public:B66150:947180","Welland Centennial Secondary School","240 Thorold Rd","Welland","Ontario","Canada","L3C 3W2"
"on-public:B66117:953555","Wellington Heights Secondary School","405 Sligo Rd E","Mount Forest","Ontario","Canada","N0G 2L2"
"on-public:B66184:951366","West Carleton Secondary School","3088 Dunrobin Rd","Dunrobin","Ontario","Canada","K0A 1T0"
"on-public:B66044:951439","West Elgin Secondary School","139 Graham St","West Lorne","Ontario","Canada","N0L 2P0"
"on-public:B66052:928852","West End Alternative School","Suite 3rd Floor, 777 Bloor St W","Toronto","Ontario","Canada","M6G 1L6"
"on-public:B28037:951463","West Ferris Secondary School","60 Marshall Pk Dr","North Bay","Ontario","Canada","P1A 2P2"
"on-public:B66052:951560","West Hill Collegiate Institute","350 Morningside Ave","Toronto","Ontario","Canada","M1E 3G3"
"on-public:B66052:951749","West Humber Collegiate Institute","1675 Martin Grove Rd","Toronto","Ontario","Canada","M9V 3S3"
"on-public:B66150:951561","West Niagara Secondary School","5699 King St.","Lincoln","Ontario","Canada","L3J 1N5"
"on-public:B66141:951820","Westdale Secondary School","700 Main Street West","Hamilton","Ontario","Canada","L8S 1A5"
"on-public:B66052:951951","Western Technical & Commercial School","125 Evelyn Cres","Toronto","Ontario","Canada","M6P 3E3"
"on-public:B66150:952214","Westlane Secondary School","5960 Pitton Rd","Niagara Falls","Ontario","Canada","L2H 1T5"
"on-public:B66044:952346","Westminster Secondary School","230 Base Line Rd W","London","Ontario","Canada","N6J 1W1"
"on-public:B66095:952516","Westmount Collegiate Institute","Suite Suite 103, 1000 New Westminster Dr","Thornhill","Ontario","Canada","L4J 8G3"
"on-public:B66141:952478","Westmount Secondary School","39 Montcalm Drive","Hamilton","Ontario","Canada","L9C 4B1"
"on-public:B66052:952605","Weston Collegiate Institute","100 Pine St","Toronto","Ontario","Canada","M9N 2Y9"
"on-public:B66117:947253","Westside Secondary School","300 Alder St","Orangeville","Ontario","Canada","L9W 5A2"
"on-public:B66052:952818","Westview Centennial Secondary School","755 Oakdale Rd","Toronto","Ontario","Canada","M3N 1W7"
"on-public:B66028:918806","Westview Freedom Academy Secondary School","1375 California Ave","Windsor","Ontario","Canada","N9B 2Z8"
"on-public:B66052:952990","Wexford Collegiate School for the Arts","1176 Pharmacy Ave","Toronto","Ontario","Canada","M1R 2H7"
"on-public:B66133:953121","White Oaks Secondary School","1330 Montclair Dr","Oakville","Ontario","Canada","L6H 1Z5"
"on-public:B28010:953148","White Pines Collegiate and Vocational School","1007 Trunk Rd","Sault Ste Marie","Ontario","Canada","P6A 5K9"
"on-public:B66052:950130","William Lyon Mackenzie Collegiate Institute","20 Tillplain Rd","Toronto","Ontario","Canada","M3H 5R2"
"on-public:B66052:954039","Winston Churchill Collegiate Institute","2239 Lawrence Ave E","Toronto","Ontario","Canada","M1P 2P7"
"on-public:B66052:954160","Woburn Collegiate Institute","2222 Ellesmere Rd","Toronto","Ontario","Canada","M1G 3M3"
"on-public:B66095:954292","Woodbridge College","71 Bruce St","Woodbridge","Ontario","Canada","L4L 1J3"
"on-public:B66184:954420","Woodroffe High School","2410 Georgina Dr","Ottawa","Ontario","Canada","K2B 7M8"
"on-public:B66044:954551","Woodstock Collegiate Institute","35 Riddell St","Woodstock","Ontario","Canada","N4S 6L9"
"on-public:B66052:954683","York Memorial Collegiate Institute","1700 Keele Street","York","Ontario","Canada","M6M 3W5"
"on-public:B66052:954810","York Mills Collegiate Institute","490 York Mills Rd","Toronto","Ontario","Canada","M3B 1W6"
"on-public:B66052:954942","Yorkdale Secondary School","38 Orfus Rd","Toronto","Ontario","Canada","M6A 1L6"
